id_store;id_country;id_state;name;address1;address2;city;postcode;coordinates;phone;fax;email;note;active;hours_1;hours_2;hours_3;hours_4;hours_5;hours_6;hours_7;id_store
;145;62;Eukanuba;Av. Anillo Periférico 4690, Ampliación Jardines del Pedregal, Coyoacan;Centro Comercial Perisur;Mexico, CDMX;6100;19.3029621,-99.1891398;15556060058;;;;;;;;;;;;
;145;62;Eukanuba;Prado Norte 381, Lomas de Chapultepec, Miguel Hidalgo;Calle;Mexico, CDMX;11000;19.4277427,-99.2102518;15555400379;;;;;;;;;;;;
;145;62;Eukanuba;Av. Coyoacan 2000, Xoco, Coyoacan;Centro Comercial Coyoacan;Mexico, CDMX;3330;19.3600142,-99.1702972;15556010436;;;;;;;;;;;;
;145;62;Eukanuba;Centro Comercial l368, Fraccionamiento Ciudad Satélite, Naucalpan;Plaza Satélite;Naucalpan, Estado de México;53100;19.5099644,-99.2342408;15555725668;;;;;;;;;;;;
;145;62;Eukanuba;Calz. Del Hueso 519, Residencial Acoxpa, Tlalpan;Galerías Coapa Local 138;Mexico, CDMX;14300;19.3022918,-99.1229097;15556797991;;;;;;;;;;;;
;145;62;Eukanuba;Av. Melchor Ocampo 193, Verónica Anzures, Miguel Hidalgo;Galería de las Estrellas Local G24;Mexico, CDMX;11300;19.4360849,-99.1713186;15552600757;;;;;;;;;;;;
;145;62;Eukanuba;Blvd. Toluca-Ixtapan 126, La Purísima, Metepec;Centro Comercial Galerías Metepec Loc. 101 ;Metepec, Estado de México;52140;19.2597499,-99.6209389;17222321292;;;;;;;;;;;;
;145;62;Eukanuba;Blvd. Manuel Avila Camacho, San Lucas Tepetlacalco, Tlalnepantla;Centro Comercial Mundo E;Tlalnepantla, Estado de México;55054;19.5251304,-99.2276845;15553669515;;;;;;;;;;;;
;145;62;Eukanuba;Vía José López Portillo 105, Zacuautitla, Coacalco;Plaza Las Flores Coacalco Local 59;Coacalco, Estado de México;55700;19.6342997,-99.0967432;15510393133;;;;;;;;;;;;
;145;62;Eukanuba;Av. Vasco de Quiroga 3800, Santa Fe, Cuajimalpa;Centro Comercial Santa Fe Local 474;Mexico, CDMX;5109;19.3615186,-99.2738342;15552580874;;;;;;;;;;;;
;145;62;Eukanuba;Av. Ejército Nacional 980, Polanco, Miguel Hidalgo;Pabellón Polanco;Mexico, CDMX;11510;19.4375876,-99.2071152;15555800736;;;;;;;;;;;;
;145;62;Eukanuba;Av. San Fernando 649, Peña Pobre, Tlalpan;Plaza Cuicuilco Local 51;Mexico, CDMX;14060;19.2981261,-99.1813709;15556064272;;;;;;;;;;;;
;145;62;Eukanuba;Altamirano 46, Tizapan, Alvaro Obregón;Plaza Loreto Locales 147-149;Mexico, CDMX;1090;19.34004,-99.194575;15556164268;;;;;;;;;;;;
;145;62;Eukanuba;Calz. Del Hueso 670, Los Robles Coyoacan, Coyoacan;Chedraui Coapa;Mexico, CDMX;4094;19.3042975,-99.1191814;15556778718;;;;;;;;;;;;
;145;62;Eukanuba;Av. Vicente Guerrero 110, Lomas de la Selva, Cuernavaca;Plaza Cuernavaca Local H8;Cuernavaca, Morelos;62270;18.9341847,-99.2283782;17773187328;;;;;;;;;;;;
;145;62;Eukanuba;Av. Carlos Hank González 120, Rinconada de Aragón, Ecatepec;Plaza Aragón Locales 86 y 86-A;Ecatepec, Estado de México;55120;19.531088,-99.0279951;15557766364;;;;;;;;;;;;
;145;62;Eukanuba;Miguel de Cervantes Saavedra 397, Irrigación, Miguel Hidalgo ;Chedraui Polanco 46-A;Mexico, CDMX;11579;19.4418438,-99.2068664;55574740;;;;;;;;;;;;
;145;62;Eukanuba;Av. Montevideo 363,  Lindavista, Gustavo A. Madero;Plaza Lindavista Local 120;Mexico, CDMX;7300;19.4920573,-99.1335332;57524222;;;;;;;;;;;;
;145;62;Eukanuba;Calle Parroquia 194, Del Valle, Benito Juárez;Galerías Insurgentes Local 328;Mexico, CDMX;11000;19.3720464,-99.1781444;56278443;;;;;;;;;;;;
;145;62;Eukanuba;Av. Tezontle 1520, Alfonso Ortiz Tirado, Iztapalapa;Plaza Oriente Local B-11;Mexico, CDMX;9010;19.3836745,-99.0826459;56007460;;;;;;;;;;;;
;145;62;Eukanuba;Blvd. Villas de Irapuato 1443, Egido Irapuato, Irapuato;Plaza Cibeles Irapuato Local 23;Irapuato, Guanajuato;36643;20.6805538,-101.3796539;4624903285;;;;;;;;;;;;
;145;62;Eukanuba;Camino Real de la Plata 100, Zona Plateada, Ppachuca de Soto;Galerías Pachuca Local 125;Pachuca, Hidalgo;42080;20.0980843,-98.7684993;17711330089;;;;;;;;;;;;
;145;62;Eukanuba;Av. Vallarta 3959, Don Bosco Vallarta, Zapopan;Gran Plaza Guadalajara local 3 y 4 L;Zapopan, Jalisco;45049;20.6732293,-103.4053554;3336210052;;;;;;;;;;;;
;145;62;Eukanuba;Boulevard José Diego Valades Ríos 1676, Desarrollo Urbano 3 Ríos, Culiacán;Fórum Culiacán Local PA02 y PA03;Culiacán, Sinaloa;80020;24.8148115,-107.4009236;6677125348;;;;;;;;;;;;
;145;62;Eukanuba;Av. Manuel L. Barragán 220, Ex hacienda El Canadá, Escobedo;Outlet Monterrey Local 14;Monterrey, Nuevo León;66054;25.7056424,-100.3169851;8180589081;;;;;;;;;;;;
;145;62;Eukanuba;Av. Insurgentes 2500,  Vista Hermosa, Monterrey;Galerías Monterrey Locales 137 y 138;Monterrey, Nuevo León;64620;25.6811208,-100.3543972;8183488052;;;;;;;;;;;;
;145;62;Eukanuba;Av. Tules 178, Fracc. Los Tules Centro, Puerto Vallarta;Plaza Caracol Local 14-15;Puerto Vallarta, Jalisco;48333;20.6440552,-105.2311189;3222930020;;;;;;;;;;;;
;145;62;Eukanuba;Calle 75 196, Montes de Ame, Merida;Gran Plaza Mérida Local  242 Planta Alta;Merida, Yucatan;97115;21.030411,-89.6240885;9999489721;;;;;;;;;;;;
;145;62;Eukanuba;Av. Tulum Sur 260, Super Manzana 7, Benito Juárez;Plaza las Américas Local 210;Cancún, Quintana Roo;77500;21.145717,-86.8234944;9988840576;;;;;;;;;;;;
;145;62;Eukanuba;Av. Hank González, Conjunto Urbano Las Américas, Ecatepec;Plaza Comercial Las Américas Local A-8;Ecatepec, Estado de México;55070;19.5312533,-99.0263961;15503830;;;;;;;;;;;;
;145;62;Eukanuba;Blvd. Quintana 4100, Alamos 3ra. Tercera Seccion, Querétaro;Plaza Boulevares Local 16;Querétaro, Querétaro;76160;20.6145183,-100.3877144;4422463118;;;;;;;;;;;;
;145;62;Eukanuba;Av. 5 de Febrero 99, Los Virreyes, Querétaro;Centro Comercial Galerias Queretaro  Local 227;Querétaro, Querétaro;76175;20.57774,-100.404813;4422150477;;;;;;;;;;;;
;145;62;Eukanuba;Av. Nereo Rodríguez Barraban 49, Del Valle, San Luis Potosí;El Dorado Locales A, B y C;San Luis Potosí, San Luis Potosí;78200;22.156241,-101.003293;4448114700;;;;;;;;;;;;
;145;62;Eukanuba;Blvd. Magocentro 26, Centro Urbano San Fernando La Herradura, Huixquilucan;Mz. 1 Lt. 2 112 Centro Comercial Magnocentro;Huixquilucan, Estado de México;52760;19.3996052,-99.2763641;52907674;;;;;;;;;;;;
;145;62;Eukanuba;Boulevard Adolfo López Mateos 100, Las Alamedas, Atizapan;Multiplazas Las Alamedas Local K-3;Atizapán de Zaragoza, Estado de México;52970;19.5524105,-99.2425201;58242362;;;;;;;;;;;;
;145;62;Eukanuba;Av. Huehuetoca 1, Ex Hacienda San Miguel, Cuautitlan Izcalli;Centro San Miguel Local 1-15;Cuautitlan, Estado de México;54750;19.6887629,-99.2142851;58175653;;;;;;;;;;;;
;145;62;Eukanuba;Av.Gustavo Baz 209, Hacienda de Echegaray, Naucalpan;Calle;Naucalpan, Estado de México;53300;19.492855,-99.2275023;55606956;;;;;;;;;;;;
;145;62;Eukanuba;Río Mississippi 54, Cuauhtémoc, Cuauhtémoc;Calle;Mexico, CDMX;6500;19.427468,-99.1725936;55336489;;;;;;;;;;;;
;145;62;Eukanuba;Calle Rubens 3,  San Juan, Benito Juárez;Local 5, entrada sobre Av. Revolucion;Mexico, CDMX;3730;19.3784718,-99.1871999;55981596;;;;;;;;;;;;
;145;62;Eukanuba;Rochester 79, Nápoles, Benito Juárez;Calle;Mexico, CDMX;3810;19.3927118,-99.1795983;56879985;;;;;;;;;;;;
;145;62;Eukanuba;Calle 21 327,  Miguel Hidalgo, Mérida;Plaza Américas Local E1 ;Merida, Yucatan;97229;20.9921826,-89.6495182;9999879011;;;;;;;;;;;;
;145;62;Eukanuba;Av. Central, Bosques de Aragon, Ecatepec;Multiplaza Bosques Local 10;Ecatepec, Estado de México;57170;19.4646488,-99.056552;57995604;;;;;;;;;;;;
;145;62;Eukanuba;Av. México 13, Hipódromo Condesa, Cuauhtémoc;Calle;Mexico, CDMX;6100;19.4144792,-99.1691704;52112553;;;;;;;;;;;;
;145;62;Eukanuba;Av. Insurgentes, Emancipación de México, Chetumal;Km 5.025 Plaza Américas Local 8;Chetumal, Quintana Roo;77084;18.520126,-88.323418;9838376499;;;;;;;;;;;;
;145;62;Eukanuba;Calz. De las Aguilas 1167, Proletaria San Clemente, Alvaro Obregón;Plaza Las Aguilas Local 8;Mexico, CDMX;1710;19.349233,-99.2265763;56516283;;;;;;;;;;;;
;145;62;Eukanuba;Av. López Mateos 2375, Ciudad del Sol, Zapopan;Plaza del Sol Local 1 Zona ;Zapopan, Jalisco;45050;20.6508401,-103.4009518;3336473189;;;;;;;;;;;;
;145;62;Eukanuba;Av. Dr. Salvador Nava 3135, Colinas del Parque, San Luis Potosí;WM Tangamanga;San Luis Potosí, San Luis Potosí;78294;22.1378622,-101.0032335;4448330496;;;;;;;;;;;;
;145;62;Eukanuba;Av. Benito Juárez 2005, Fracc. Estrella Oriente, San Luis Potosí;Plaza Sendero;San Luis Potosí, San Luis Potosí;78396;22.1307743,-100.925029;4446597753;;;;;;;;;;;;
;145;62;Eukanuba;Eje Norte Poniente 801, 15 de Mayo, Celaya;Parque Celaya Local A14 y A15;Celaya, Guanajuato;38020;20.5470744,-100.8393333;4616175819;;;;;;;;;;;;
;145;62;Eukanuba;Autopista Mex-Qro, Centro Industrial Tlalnepantla, Tlalnepantla;Esq. Vía Gustavo Baz S/N Multiplaza Arboledas ;Tlalnepantla, Estado de México;54030;19.5452463,-99.2087373;53841356;;;;;;;;;;;;
;145;62;Eukanuba;Av. Bonifacio Salinas 5000, Torres Lindavista, Guadalupe;Wal-Mart;Monterrey, Nuevo León;67130;25.69098,-100.2401644;8183796097;;;;;;;;;;;;
;145;62;Eukanuba;Boulevard Juan José Torres Landa Oriente 1601, Fracción del Predio El Tlacuache, León;Wal-Mart;León, Guanajuato;37500;21.0981438,-101.6606167;4777619211;;;;;;;;;;;;
;145;62;Eukanuba;Av. Eugenio Garza Sada 1061, Las Brisas, Monterrey;Wal-Mart;Monterrey, Nuevo León;64780;25.6161679,-100.2736934;8183575861;;;;;;;;;;;;
;145;62;Eukanuba;Av. Abraham Lincoln 5400, Rincon de Santa Cecilia, Monterrey;Wal-Mart;Monterrey, Nuevo León;64117;25.7306846,-100.3697911;8114254840;;;;;;;;;;;;
;145;62;Eukanuba;Blvd. Juan Alonso de Torres Oriente 1315, Predio San José del Consuelo, León;Plaza Galerias las torres ;León, Guanajuato;37200;21.1469959,-101.6466598;4777767371;;;;;;;;;;;;
;145;62;Eukanuba;Tercer Anillo Periférico 301, Valle Dorado, Colima;Plaza Zentralia Colima Locales 167 y 168;Colima, Colima;28017;19.2671485,-103.698083;3123236183;;;;;;;;;;;;
;145;62;Eukanuba;Av. Revolución 99, El Sol, Querétaro;Plaza Sendero Local 21  Bloque C;Querétaro, Querétaro;76113;20.6181318,-100.4399057;4422204476;;;;;;;;;;;;
;145;62;Eukanuba;Blvd. Aeropuerto Miguel Alemán 55, Parque Industrial Lerma, Lerma;Plaza Sendero Toluca  Local 21 Bloque D;Lerma, Estado de México;52000;19.290405,-99.5550317;7223173170;;;;;;;;;;;;
;145;62;Eukanuba;Av. Río Mayo 1207, Vista Hermosa, Cuernavaca;Pabellón Vista Hermosa Lote 12, 13 Local 18;Cuernavaca, Morelos;62290;18.9353365,-99.2086693;17771001894;;;;;;;;;;;;
;145;62;Eukanuba;Centro Comercial La Cúspide, Lomas Verdes, Naucalpan;Centro Comercial La Cúspide Lote 21;Naucalpan, Estado de México;53120;19.514005,-99.2665909;53490064;;;;;;;;;;;;
;145;62;Eukanuba;Circuito Economistas 5E, Ciudad Satélite, Naucalpan;Zona Azul Satélite;Naucalpan, Estado de México;53100;19.5048946,-99.247961;55620103;;;;;;;;;;;;
;145;62;Eukanuba;Av. Lomas Verdes 640, Lomas Verdes, Naucalpan;Plaza Shopping Local 18;Naucalpan, Estado de México;53950;19.5066808,-99.259131;53442198;;;;;;;;;;;;
;145;62;Eukanuba;Av. Humberto Lobo y Rio Guadalupe 520, Del Valle, Garza García;Plaza San Pedro Local 21;Monterrey, Nuevo León;64200;25.6644836,-100.3838709;8183785964;;;;;;;;;;;;
;145;62;Eukanuba;Av. Coyoacan 145,  Del Valle, Coyoacan;local A ;Mexico, CDMX;3100;19.3957718,-99.1670778;55368824;;;;;;;;;;;;
;145;62;Eukanuba;Av. Canal de Tezontle 1512,Alfonso Ortiz Tirado, Iztapalapa ;Parque Tezontle Local 23;Mexico, CDMX;9020;19.3836743,-99.0826457;91290362;;;;;;;;;;;;
;145;62;Eukanuba;Blvrd. De las Naciones, Granjas del Marqués, Acapulco de Juárez;Walmart Diamante Local 42-AM;Acapulco, Guerrero;39890;16.7964773,-99.8121313;1744432149;;;;;;;;;;;;
;145;62;Eukanuba;Blvd. a Zacatecas Norte 849, Trojes de Alonso, Aguascalientes;Plaza Altaria Local 1016;Aguascalientes, Aguascalientes;20116;21.9233699,-102.2893614;4499149092;;;;;;;;;;;;
;145;62;Eukanuba;Blvd. Felipe Pescador 1401, Esperanza, Durango;Plaza Paseo Durango Local B-09;Durango, Durango;34080;24.0358083,-104.6507507;6181291988;;;;;;;;;;;;
;145;62;Eukanuba;Calle 7  451, Franccionamiento Altabrisa, Mérida;Plaza Altabrisa Manzana 594   Local 18 Planta Baja;Merida, Yucatan;97133;21.0181127,-89.5841113;9991679465;;;;;;;;;;;;
;145;62;Eukanuba;Lic. Enrique Ramírez Miguel 1000,  Fraccionamiento Las Américas, Morelia;Las Américas Local 220;Morelia, Michoacán;58270;19.6894217,-101.1588609;4433157045;;;;;;;;;;;;
;145;62;Eukanuba;Blvd. Luis Donaldo Colosio No. 680, Benito Juárez Oriente, Tepic;Fórum;Tepic, Nayarit;63175;21.4914262,-104.8664597;3112116097;;;;;;;;;;;;
;145;62;Eukanuba;Blvd. Del Niño Poblano 2510, Concepción de la Cruz, Puebla;Plaza Angelopolis  Local 201-F 202-F;Puebla, Puebla;72450;19.0314417,-98.2309029;12222252842;;;;;;;;;;;;
;145;62;Eukanuba;Av. Periférico Raúl López Sánchez 6000,  El Fresno, Torreon;Plaza Galerías Laguna Local 104;Torreón, Coahuila;27018;25.58183,-103.4049907;8717507793;;;;;;;;;;;;
;145;62;Eukanuba;Av. Bordo de Xochiaca 3, Del Sol, Nezahualcóyotl;Plaza Cd. Jardin Bicentenario E-09;Nezahualcóyotl, Estado de México;57200;19.4250356,-99.0233398;15584133;;;;;;;;;;;;
;145;62;Eukanuba;Fuentes de Satélite 1, Bellavista, Tlalnepantla;Calle;Tlalnepantla, Estado de México;54080;19.519522,-99.2461438;55729667;;;;;;;;;;;;
;145;62;Eukanuba;Av. Ruíz Cortines 255, Las Margaritas, Atizapan;Galerías Atizapan Mz-2 Lt- 1 Local 134;Atizapán de Zaragoza, Estado de México;52977;19.5494878,-99.2741966;16689055;;;;;;;;;;;;
;145;62;Eukanuba;Calle 60 29, Revolución, Merida;Plaza Galerías Mérida Local 164;Merida, Yucatan;97115;21.0394789,-89.6308987;9999419675;;;;;;;;;;;;
;145;62;Eukanuba;Av. Francisco Ascencio 2920, Educación, Puerto Vallarta;Galerías Vallarta  Local 124 ;Puerto Vallarta, Jalisco;48338;20.6581894,-105.2389799;3222090391;;;;;;;;;;;;
;145;62;Eukanuba;Blvd. Nazario S. Ortiz 2345, Tanque de Peña, Saltillo;Plaza Galerías Saltillo Local 233;Saltillo, Coahuila;25279;25.4583898,-100.9801751;8444853593;;;;;;;;;;;;
;145;62;Eukanuba;Blvd. René Juárez Cisneros 130, Predio Tepanco, Chilpancingo;Galerías Chilpancingo Local 313;Chilpancingo, Guerreo;39095;17.5152489,-99.4846122;17474949846;;;;;;;;;;;;
;145;62;Eukanuba;Colector 13 280, Magdalena de las Salinas, Gustavo A. Madero;Parque Lindavista Local 214-214 A;Mexico, CDMX;7760;19.4920571,-99.1335335;57544214;;;;;;;;;;;;
;145;62;Eukanuba;Cuauhtémoc 462, Narvarte, Benito Juárez;Plaza Parque Delta Local 134;Mexico, CDMX;3000;19.4028326,-99.1541143;54407277;;;;;;;;;;;;
;145;62;Eukanuba;Blvd. Puerta de Hierro 4965, Fraccionamiento Plaza Andares, Zapopan;Plaza Andares Local UP67-127 ;Zapopan, Jalisco;45116;20.7113577,-103.4114276;3336113123;;;;;;;;;;;;
;145;62;Eukanuba;Bolivia 401, Las Americas, Toluca;Calle;Toluca, Estado de México;50130;19.2797132,-99.6435022;7222126359;;;;;;;;;;;;
;145;62;Eukanuba;Av. Jesús del Monte 41, Ex Hacienda Jesús del Monte, Huixquilucan;Parque Interolmas;Huixquilucan, Estado de México;52764;19.3956592,-99.2883183;52470179;;;;;;;;;;;;
;145;62;Eukanuba;Av. Acoxpa 447, Villa Lázaro Cárdenas, Tlalpan;Acoxpa;Mexico, CDMX;14370;19.2970731,-99.1369444;56030957;;;;;;;;;;;;
;145;62;Eukanuba;Av. Americas 190,  Altamira, Zapopan;Plaza Patria Local 6 zona J;Zapopan, Jalisco;45160;20.7123509,-103.378451;3331110776;;;;;;;;;;;;
;145;62;Eukanuba;5 de Febrero, Jurica, Querétaro;GALERIAS ;Querétaro, Querétaro;76100;20.6485903,-100.4330826;4422181661;;;;;;;;;;;;
;145;62;Eukanuba;Blvd. Luis Donaldo Colosio, Exhacienda de Coscotitlan, Pachuca de Soto;Mz. 1 Fracción 1  Plaza Gran Patio Local 524-525;Pachuca, Hidalgo;42064;20.092779,-98.7591887;17717197843;;;;;;;;;;;;
;145;62;Eukanuba;Av. General Marcelino García Barrgán 2077,  El Paradero, Tlaquepaque;Forum Tlaquepaque Local PB 48 y 49;Tlaquepaque, Jalisco;45500;20.6480121,-103.3213798;3336572408;;;;;;;;;;;;
;145;62;Eukanuba;Vialidad de la Barranca 6,  Ex Hacienda Jesús del Monte, Huixquilucan;Paseo Interlomas Local N2-05;Huixquilucan, Estado de México;52772;19.3978108,-99.2828469;52906361;;;;;;;;;;;;
;145;62;Eukanuba;San Esteban 46, San Esteban Huitzilacasco, Naucalpan;Las Tiendas San Esteban Local PB-36B;Naucalpan, Estado de México;53550;19.4593831,-99.2307797;53590795;;;;;;;;;;;;
;145;62;Eukanuba; Costera Miguel Aleman 1632, Fraccionamiento Magallanes, Acapulco;Gran Plaza (Galerias Las Estrellas) Locales B4, B7, B8, B10;Acapulco, Guerrero;39670;16.861599,-99.8813639;17444853867;;;;;;;;;;;;
;145;62;Eukanuba;Calle Durango 252, Roma, Cuauhtémoc;Locales B y C;Mexico, CDMX;6700;19.4189709,-99.1696695;55339835;;;;;;;;;;;;
;145;62;Eukanuba;Ex Hacienda Sierra Vieja, Hacienda del Parque, Cuatitlan Izcalli;Perinorte;Cuatitlan Izcalli, Estado de Mexico;54769;19.6023941,-99.1918274;58939590;;;;;;;;;;;;
;145;62;Eukanuba;Av. 1 de Mayo, Centro Urbano, Cuatitlan Izcalli;Esq. Av.Huixquilucan, Centro Comercial Luna Parc Local 158;Cuatitlan Izcalli, Estado de Mexico;54730;19.6571526,-99.2103824;58711303;;;;;;;;;;;;
;145;62;Eukanuba;Bosque de Minas, Bosques de la Herradura, Huixquilucan;Plaza Comercial La Abejita;Huixquilucan, Estado de México;52783;19.4213876,-99.2623823;52954069;;;;;;;;;;;;
;145;62;Eukanuba;Cerrada de Avenida Tecnológico de Monterrey, Desarrollo Monarca, Morelia;Paseo Morelia Local 1N - 17B;Morelia, Michoacán;58350;19.6889896,-101.1587142;4432041828;;;;;;;;;;;;
;145;62;Eukanuba;José María Morelos y Pavón Carr. México Toluca Km. 50, San Pedro Cholula, Estado de México;Las Plazas Outlet Lerma;Lerma, Estado de México;52000;19.2821551,-99.4999747;7282845041;;;;;;;;;;;;
;145;62;Eukanuba;Av. Universidad 323, Santa Cruz Atoyac, Benito Juárez;Plaza Universidad Local 3-4;Mexico, CDMX;3310;19.3881986,-99.1540259;56018116;;;;;;;;;;;;
;145;62;Eukanuba;Av. El Rosario 1025, Tierra Nueva, Azcapotzalco;Town Center;Azcapotzalco, Estado de México;55700;19.5032066,-99.2029647;91270991;;;;;;;;;;;;
;145;62;Eukanuba;Eje 1 Norte Mosqueta, Buenavista, Cuahutémoc;Forum Buenavista;Mexico, CDMX;6350;19.4487916,-99.1514538;55351338;;;;;;;;;;;;
;145;62;Eukanuba;Carr. Lago de Guadalupe, San Pedro Barrientos, Tlanepantla;Centro Lago de Guadalupe;Tlanepantla, Estado de México;54020;19.5784791,-99.2116549;53050647;;;;;;;;;;;;
;145;62;Eukanuba;Av. López Portillo, Rancho La Palma  III, Coacalco;Power Center Coacalco;Coacalco, Estado de México;55717;19.6281827,-99.1240578;15484066;;;;;;;;;;;;
;145;62;Eukanuba;Blvd. Antonio Rocha Cordero 700, Fraccionamiento Lomas Del Tecnológico, San Luis Potosí;Centro Comercial Plaza San Luis Local C 25;San Luis Potosí, San Luis Potosí;78215;22.1271204,-101.0301167;4448130140;;;;;;;;;;;;
;145;62;Eukanuba;Av. San Jerónimo 1804, Lomas Quebradas, Magdalena Contreras;Calle;Mexico, CDMX;10000;19.3144229,-99.2421392;55951663;;;;;;;;;;;;
;145;62;Eukanuba;Av. Juárez 2302, La Paz, Puebla;Local B;Puebla, Puebla;72160;19.0508469,-98.2164705;12222304368;;;;;;;;;;;;
;145;62;Eukanuba;Calle 10 132,  San Pedro de los Pinos, Alvaro Obregón;Exhibimex;Mexico, CDMX;1180;19.3891675,-99.1914934;26143298;;;;;;;;;;;;
;145;62;Eukanuba;Blvd. del Bote 202, Ciudad Argentum, Zacatecas;Galerias Zacatecas   Local 404;Zacatecas, Zacatecas;98040;22.776838,-102.5974445;4927681083;;;;;;;;;;;;
;145;62;Eukanuba;Av. Nor- Oriente 200, Las compuertas del campestre, Celaya;centro comercial - galerias celaya;Celaya, Guanajuato;38080;20.5321667,-100.7780532;4611594708;;;;;;;;;;;;
;145;62;Eukanuba;Av. Acoxpa 430, Ex Hacienda Coapa, Tlalpan;Paseo Acoxpa Local L-93;Mexico, CDMX;4980;19.2994158,-99.1367292;56777918;;;;;;;;;;;;
;145;62;Eukanuba;San Jerónimo 924, San Jerónimo Lidice, Magdalena Contreras ;Calle;Mexico, CDMX;10200;19.330757,-99.2090719;56832126;;;;;;;;;;;;
;145;62;Eukanuba;Calz. De los Jinetes 138, San Mateo Tecoloapan, Atizapan de Zaragosa;Calle;Atizapán de Zaragoza, Estado de México;52920;19.5620586,-99.2217565;53702893;;;;;;;;;;;;
;145;62;Eukanuba;Calle Tennysson 117, Polanco, Miguel Hidalgo;Local C;Mexico, CDMX;11560;19.4317557,-99.1947607;52800539;;;;;;;;;;;;
;145;62;Eukanuba;Blvd. centro sur 1051, Colinas del cimatario, Josefa Vergara y Hernandez;Plaza De Las Fuentes;Querétaro, Querétaro;76090;20.5629408,-100.3742455;4422229946;;;;;;;;;;;;
;145;62;Eukanuba;Av. Carr Panamericana 202, Centro, San Juan del Rio;galerias san juan del rio local 104;San Juan del Rio, Querétaro;76800;20.3858371,-100.0127188;4272725607;;;;;;;;;;;;
;145;62;Eukanuba;Av. Gómez Morín 300, Residencial Valle del Campestre, San Pedro Garza García;Heb chipinque Local 1020-E;San Pedro Garza García, Nuevo León;66278;25.649979,-100.3594744;8183569863;;;;;;;;;;;;
;145;62;Eukanuba;Ruben Dario 1286, Providencia, Zapopan;Calle;Zapopan, Jalisco;45040;20.6958134,-103.3830932;3338171922;;;;;;;;;;;;
;145;62;Eukanuba;Av. Guadalupe 1390,  Chapalita, Zapopan;Calle;Zapopan, Jalisco;45040;20.6655986,-103.4058711;3336472133;;;;;;;;;;;;
;145;62;Eukanuba;Londres 101, Juárez, Cuauhtémoc;local ;Mexico, CDMX;6600;19.4260241,-99.1630854;52072069;;;;;;;;;;;;
;145;62;Eukanuba;Boulevar Aeropuerto 104, cerrito de jerez, Leon;Altacia local 3016 ;León, Guanajuato;37530;21.092705,-101.6264084;4771944053;;;;;;;;;;;;
;145;62;Eukanuba;Calz. Porfirio Diaz 27, Reforma, Oaxaca;Plaza del parque Local 1b planta alta;Oaxaca, Oaxaca;68000;17.078759,-96.719102;9515025095;;;;;;;;;;;;
;145;62;Eukanuba;Av. Chalma, Jardines de la Hacienda Sur, Cuautitlan Izcalli;Plaza Local E-12;Cuautitlan Izcalli, Estado de México;54720;19.6725187,-99.2064132;24720503;;;;;;;;;;;;
;145;62;Eukanuba;Av. División del Norte 2703, San Lucas, Coyoacan;Calle;Mexico, CDMX;4030;19.3507496,-99.1514116;53365242;;;;;;;;;;;;
;145;62;Eukanuba;Circuito Médicos 35, Ciudad Satélite, Naucalpan;Plaza;Naucalpan, Estado de México;53100;19.5099161,-99.2325164;16630251;;;;;;;;;;;;
;145;62;Eukanuba;Blvd. Lomas de la Hacienda, Lomas de la Hacienda, Atizapan de Zaragoza;Mz. VI Lotes I y IA;Atizapán de Zaragoza, Estado de México;52925;19.5763161,-99.2333275;53059542;;;;;;;;;;;;
;145;62;Eukanuba;Prolongación Calzada de los Misterios 62, Gustavo A. Madero;Mega Comercial Mexicana;Mexico, CDMX;7840;19.4898716,-99.1186894;55773075;;;;;;;;;;;;
;145;62;Eukanuba;Av. Noche de Paz 14, Navidad, Cuajimalpa;Plaza Vista Hermosa  Local 15;Mexico, CDMX;5210;19.3724787,-99.2783718;21634480;;;;;;;;;;;;
;145;62;Eukanuba;Av. San José de los Cedros 31,  San José de los Cedros, Cuajimalpa;Local 2-B;Mexico, CDMX;5200;19.3642757,-99.2869828;21632698;;;;;;;;;;;;
;145;62;Eukanuba;Cerro de la Libertad 419, Campestre Churubusco, Coyoacan;Calle;Mexico, CDMX;4200;19.3412183,-99.136582;53362082;;;;;;;;;;;;
;145;62;Eukanuba;Hacienda La Quemada 16, Barrio San Mateo, Metepec;;Metepec, Estado de México;52140;19.2576985,-99.5975691;7222320518;;;;;;;;;;;;
;145;62;Eukanuba;Calzada de las Aguilas 1167, Ampliación Las Aguilas, Álvaro Obregón;Plaza Caryali Local 8;Mexico, CDMX;1710;19.3612147,-99.1975266;10560613;;;;;;;;;;;;
;145;62;Eukanuba;Querétaro 9, Roma Norte, Cuauhtémoc;Calle;Mexico, CDMX;6700;19.415983,-99.1549494;52642152;;;;;;;;;;;;
;145;62;Eukanuba;Río Mixcoac 71,  Insurgentes Mixcoac, Benito Juárez;local B;Mexico, CDMX;3920;19.3696539,-99.1829213;55635633;;;;;;;;;;;;
;145;62;Eukanuba;Av. Netzahualcóyotl, Santa María Nativitas, Chimalhuacán;Esq. Francisco I. Madero Plaza Chimalhuacán;Chimalcuacán, Estado de México;56335;19.4111616,-98.9278557;50447937;;;;;;;;;;;;
;145;62;Eukanuba;Calle Sendero del Capitel 506, Milenio III, El Marqués;Fraccionamiento Milenio III;Querétaro, Querétaro;76060;20.5968059,-100.3617945;4421982079;;;;;;;;;;;;
;145;62;Eukanuba;Eje 2 Sur Juan Escutia, Condesa, Cuauhtémoc;Cruce de Cto. Bicentenario Bajo Puente ;Mexico, CDMX;6140;19.4171362,-99.1787291;52119570;;;;;;;;;;;;
;145;62;Eukanuba;Calzada De Las Bombas 72, El Paraje Coyoacan, Coyoacan;Local 6;Mexico, CDMX;4850;19.3091006,-99.1325992;56774385;;;;;;;;;;;;
;145;62;Eukanuba;Lago Alberto 320, Granada, Miguel Hidalgo;Esq. Mariano Escobedo Plaza;Mexico, CDMX;11320;19.4405449,-99.1844109;52030761;;;;;;;;;;;;
;145;62;Eukanuba;Dominguez Diez 1100, Lomas de La Selva, Cuernavaca Morelos;PLAZA DIAMANTE;Cuernavaca, Morelos;62270;18.9478935,-99.2351645;17771023261;;;;;;;;;;;;
;145;62;Eukanuba;Carmen 160, Nativitas, Benito Juárez;Calle;Mexico, CDMX;3500;19.3782549,-99.1354591;55320665;;;;;;;;;;;;
;145;62;Eukanuba;Av. Toluca 475, Olivar de los Padres, Álvaro Obregón;Calle;Mexico, CDMX;1780;19.339788,-99.216582;17180289;;;;;;;;;;;;
;145;62;Eukanuba;Av. Churubusco, Del Valle, Benito Juárez;Local 5;Mexico, CDMX;3100;19.3957718,-99.1670778;56612382;;;;;;;;;;;;
;145;62;Eukanuba;Av. Reforma 101, Puebla Centro, Puebla;LOC. A;Puebla, Puebla;72161;19.0474401,-98.2048305;1222323219;;;;;;;;;;;;
;145;62;Eukanuba;Carretera Picacho Ajusco 644, Héroes de Padierna, Tlalpan;Local H;Mexico, CDMX;14200;19.2890869,-99.2174582;30892212;;;;;;;;;;;;
;145;62;Eukanuba;Plan de Ayala, San Lorenzo La Cebada, Xochimilco;Lote 12 Local 1 ;Mexico, CDMX;16010;19.2750605,-99.1204249;15090706;;;;;;;;;;;;
;145;62;Eukanuba;Av. Guadalupe 4797, Jardines de Guadalupe, Zapopan;Local  3-B  ;Zapopan, Jalisco;45030;20.662517,-103.4206074;3336208254;;;;;;;;;;;;
;145;62;Eukanuba;Dr. Río de la Loza 250, Doctores, Cuauhtémoc;Local 4 ;Mexico, CDMX;6720;19.425548,-99.1525622;55782631;;;;;;;;;;;;
;145;62;Eukanuba;Av. Prolongación López Mateos 5550,  Santa Anita  Tlajomulco de Zúñiga, Tlajomulco de Zúñiga ;Calle;Tlajomulco, Jalisco;45600;20.5668354,-103.4600779;3316550489;;;;;;;;;;;;
;145;62;Eukanuba;Av. Universidad 323, Del Valle, Benito Juárez;Locales 3 y 4;Mexico, CDMX;3104;19.3881986,-99.1540259;56871674;;;;;;;;;;;;
;145;62;Eukanuba;Paseo de la Herradura 403, Balcones de la Herradura, Huixquilucan;Calle;Huixquilucan, Estado de México;52786;19.4033568,-99.2692035;52477256;;;;;;;;;;;;
;145;62;Eukanuba;Pie de la Cuesta 340, Iztaccihuatl, Iztacalco ;Calle;Mexico, CDMX;8840;19.3764547,-99.1257922;56332717;;;;;;;;;;;;
;145;62;Eukanuba;Av. Nuevo León 217, Hipódromo, Cuauhtémoc;Calle;Mexico, CDMX;6100;19.4044514,-99.1716588;52714058;;;;;;;;;;;;
;145;62;Eukanuba;Av. Insurgentes Sur 3733, Barrio de Cuevitas de Curamaguey, Tlalpan;Calle;Mexico, CDMX;14267;19.2932217,-99.1795022;56658678;;;;;;;;;;;;
;145;62;Eukanuba;Av. División del Norte 3241, La candelaria coyoacan, coyoacan;Calle;Mexico, CDMX;4380;19.3332937,-99.1463141;16744485;;;;;;;;;;;;
;145;62;Eukanuba;Av. Luis Cabrera 240, San Jerónimo Aculco, Magdalena Contreras;Calle;Mexico, CDMX;10400;19.3208256,-99.2271587;55950083;;;;;;;;;;;;
;145;62;Eukanuba;Av. José María Castorena 320, Cuajimalpa, Cuajimalpa;Calle;Mexico, CDMX;5000;19.3606636,-99.2920471;58134597;;;;;;;;;;;;
;145;62;Eukanuba;Pestalozzi 1166, Del Valle, Benito Juárez;Calle;Mexico, CDMX;3100;19.3794082,-99.1611111;56013791;;;;;;;;;;;;
;145;62;Eukanuba;Carretera Nacional, La Estanzuela, Monterrey;Centro Comercial HEB La Estanzuela Local 6-I;Monterrey, Nuevo León;64989;25.5766491,-100.2449172;8181041474;;;;;;;;;;;;
;145;62;Eukanuba;Mariano Escobedo 752, Anzures, Miguel Hidalgo;Calle;Mexico, CDMX;11590;19.4254058,-99.1781144;52500373;;;;;;;;;;;;
;145;62;Eukanuba;Autopista México-Querétaro 2249, Plazas de la Colina, Tlalnepantla de Baz; Local C;Tlanepantla, Estado de México;54080;19.5203891,-99.2291091;53658767;;;;;;;;;;;;
;145;62;Eukanuba;Narciso 185, Hogar y Seguridad, Azcapotzalco;Calle;Mexico, CDMX;2820;19.4701408,-99.169744;55561652;;;;;;;;;;;;
;145;62;Eukanuba;Colina del Yaqui 69, Boulevares, Naucalpan;Calle;Naucalpan, Estado de México;53140;19.4911886,-99.2501953;53607124;;;;;;;;;;;;
;145;62;Eukanuba;Manufactura 1, Privada la Laborcilla, Querétaro;Plaza El Puente Local 11;Querétaro, Querétaro;76251;20.610186,-100.3877353;4422450618;;;;;;;;;;;;
;145;62;Eukanuba;Av. Eugenio Garza Sada 2411, Roma, Monterrey;Centro Comercial Paseo Tec L-28 Planta  Baja  números 2411 y 2413;Monterrey, Nuevo León;64700;25.6546758,-100.2931692;8112344735;;;;;;;;;;;;
;145;62;Eukanuba;Av. Universidad 232,  San Javier, Querétaro;Calle;Querétaro, Querétaro;76020;20.600239,-100.3787032;4422235565;;;;;;;;;;;;
;145;62;Eukanuba;Cto. Juan Pablo II 1703, Rivera del Atoyac, Puebla;Local C2;Puebla, Puebla;72430;19.0307188,-98.2228349;12222112689;;;;;;;;;;;;
;145;62;Eukanuba;Av. Benito Juárez 226, Metepec, Metepec;Centro Comercial San Carlos Local 13;Metepec, Estado de México;52140;19.2670746,-99.6267839;7222193511;;;;;;;;;;;;
;145;62;Eukanuba;Insurgentes Sur 4134, La Joya, Tlalpan ; Local 1 ;Mexico, CDMX;14000;19.2824665,-99.174083;54852164;;;;;;;;;;;;
;145;62;Eukanuba;Calzada de los Arcos 25, Jardines de Querétaro, Querétaro;Calle;Querétaro, Querétaro;76020;20.5931812,-100.3774218;4422135091;;;;;;;;;;;;
;145;62;Eukanuba;Av. Sor Juana Inés de la Cruz, Tlalnepantla de Baz Centro, Tlalnepantla;Calle;Tlanepantla, Estado de México;54000;19.5391424,-99.1974784;55652027;;;;;;;;;;;;
;145;62;Eukanuba;Escuela Naval Militar 619, Presidentes Ejidales, Coyoacán;Calle;Mexico, CDMX;4470;19.3275394,-99.1246918;56566972;;;;;;;;;;;;
;145;62;Eukanuba;Av. Fray Junipero Serra, Santa Rosa Jauregui, Santiago;Superama de Juriquilla;Santiago de Querétaro, Querétaro;76222;20.6917633,-100.4448369;4422609285;;;;;;;;;;;;
;145;62;Eukanuba;Bolivar 595, Alamos, Benito Juárez;Calle;Mexico, CDMX;3400;19.4002333,-99.1433815;55389568;;;;;;;;;;;;
;145;62;Eukanuba;Blvd Mariano Escobedo 1501, Andrade, León;calle local 6;León, Guanajuato;37370;21.1108676,-101.6716717;4777132565;;;;;;;;;;;;
;145;62;Eukanuba;Av Candiles 204, Camino Real, Candiles, Querétaro de Arteaga;Plaza Candiles  Local E-21;Corregidora, Querétaro;76903;20.5462272,-100.3961796;4422993944;;;;;;;;;;;;
;145;62;Eukanuba;Blvd. Arturo Montiel Rojas Km. 10700, Ampliación Vista Hermosa, Nicolas Romero;Town Center Nicolás Romero Local H-07;Nicolas Romero, Estado de México;54400;19.6270127,-99.2917491;89929388;;;;;;;;;;;;
;145;62;Eukanuba;Av. Palmira 312, Palmira, Cuernavaca Morelos;Local C;Cuernavaca, Morelos;62040;18.9080772,-99.2283073;17773104051;;;;;;;;;;;;
;145;62;Eukanuba;Av. Gustavo Diaz 408, Acapatzingo Cuernavaca, Morelos;LOC. C;Cuernavaca, Morelos;62440;18.9111843,-99.2213706;17773188377;;;;;;;;;;;;
;145;62;Eukanuba;Eje 1 Ote. (Av. Canal de Miramontes) 2084, Educación, Coyoacán;Local A;Mexico, CDMX;4400;19.3354375,-99.1367964;56894171;;;;;;;;;;;;
;145;62;Eukanuba;Camino Real a Cholula 4217,  Santa Cruz Buenavista Sur, San Andres Cholula;LOC. 6;Cholula, Puebla;72176;19.0459361,-98.2478543;12221696678;;;;;;;;;;;;
;145;62;Eukanuba;Cañaverales 222, Granjas Coapa, Tlalpan;Centro Comercial Local 11;Mexico, CDMX;14330;19.2953693,-99.1096191;55942610;;;;;;;;;;;;
;145;62;Eukanuba;Av. Río de los Remedios 5, San Juan Ixhuatepec, Tlanepantla ;Centro Comercial L4 B;Tlanepantla, Estado de México;11000;19.5191202,-99.116705;51199695;;;;;;;;;;;;
;145;62;Eukanuba;Avenida 21 Poniente,Belisario Domínguez, Puebla;Centro Comercial;Puebla, Puebla;72180;19.0514272,-98.2319954;12222266973;;;;;;;;;;;;
;145;62;Eukanuba;Av. Universidad Nte 101, Anahuac, San Nicolas de los Garza;Local 2-1;San Nicolás de los Garza, Nuevo León;66450;25.7350782,-100.3023511;8183527036 ;;;;;;;;;;;;
;145;62;Eukanuba;Av. Chapultepec 180, Paraiso, Guadalupe ;Heb Chapultepec;Guadalupe, Nuevo León;67140;25.6668982,-100.2683122;8183545785;;;;;;;;;;;;
;145;62;Eukanuba;Av. José Eleuterio González 315, Jardines del Cerro, Monterrey;HEB Gonzalitos Local B 29I;Monterrey, Nuevo León;64050;25.6793653,-100.3504553;8183336460;;;;;;;;;;;;
;145;62;Eukanuba;Plaza K31 Pte 2909, EL Verguel, Puebla;Local 2;Puebla, Puebla;72400;19.0437572,-98.2275037;12222303411;;;;;;;;;;;;
;145;62;Eukanuba;Boulevard Elulalio Gutierrez, Exhacienda San Jose de los Cerritos, Monterrey ;Heb Gonzalitos  Local 3-E;Monterrey, Nuevo León;25293;25.6793653,-100.3504553;8189060485 ;;;;;;;;;;;;
;145;62;Eukanuba;Av. Lincoln 5252 Poniente, Ampliacion San Jorge, Monterrey;Heb Lincoln Local 14-A;Monterrey, Nuevo León;67150;25.7306908,-100.3696732;8181105417;;;;;;;;;;;;
;145;62;Eukanuba;Blvd. Reyes 6432, Residencia San Bernardino, San Andres Cholula;Centro Comercial Loc. 22;San Andrés Cholula, Puebla;72820;19.0176812,-98.3062072;12222168199;;;;;;;;;;;;
;145;62;Eukanuba;Jiménez Cantú, Bosque Esmeralda, Atizapan de Zaragoza;Centro Comercial;Atizapán de Zaragoza, Estado de México;52930;19.5488857,-99.2883029;21655029;;;;;;;;;;;;
;145;62;Eukanuba;Av Niños Héroes 2716, Jardines del Bosque, Guadalajara;Calle;Guadalajara, Jalisco;44520;20.6669265,-103.3849389;3336471180;;;;;;;;;;;;
;145;62;Eukanuba;Av. Guadalupe 6076, Jardines de Tepeyac, Zapopan;Local A ;Zapopan, Jalisco;45030;20.6590004,-103.4396116;3336285958;;;;;;;;;;;;
;145;62;Eukanuba;Blvd. de la Santa Cruz 13-B, Boulevares, Naucalpan;Calle;Naucalpan, Estado de México;53140;19.4976073,-99.2376747;53936678;;;;;;;;;;;;
;145;62;Eukanuba;Calz. Zavaleta 1205, Exhacienda Concepción Buenavista, San Andres Cholula;Centro Comercial Local 1;San Andrés Cholula, Puebla;72170;19.0587485,-98.2505307;12221695002;;;;;;;;;;;;
;145;62;Eukanuba;San Diego 455, Vista Hermosa, Cuernavaca;Local 15;Cuernavaca, Morelos;62290;18.9413994,-99.2169275;17773224776;;;;;;;;;;;;
;145;62;Eukanuba;Av. Revolución, San Cristóbal Centro, Ecatepec;Centro Comercial;Ecatepec, Estado de México;55000;19.6057348,-99.0470384;15504767;;;;;;;;;;;;
;145;62;Eukanuba;Carretera México Tepexpan 8, San Isidro Atlautenco, Ecatepec;Centro Comercial local 2;Ecatepec, Estado de México;55064;19.6200219,-98.993977;29561493;;;;;;;;;;;;
;145;62;Eukanuba;Av. Ingenieros 370, El Agostadero, Valle de Chalco;Centro Comercial Local 03;Valle de Chalco, Estado de México;56615;19.299504,-98.9528794;16433482;;;;;;;;;;;;
;145;62;Eukanuba;Calle 33 200, Itzinal 108, Merida ;Macro plaza LOCAL C02 ;Merida, Yucatan;97143;20.9996866,-89.5737836;9999431374;;;;;;;;;;;;
;145;62;Eukanuba;Av Laureles 1300, Parque Industrial Belenes Norte, Zapopan;Calle;Zapopan, Jalisco;45145;20.7383399,-103.4014235;3338326216;;;;;;;;;;;;
;145;62;Eukanuba;Av. López Mateos 5040, La Calma, Zapopan;Local B;Zapopan, Jalisco;45070;20.6336185,-103.4144868;3336325458;;;;;;;;;;;;
;145;62;Eukanuba;Av. Universidad 987, Del Valle, Benito Juárez;Local A;Mexico, CDMX;3100;19.3677511,-99.1669583;55242030;;;;;;;;;;;;
;145;62;Eukanuba;Periférico Sur 5938, Cantera Puente de Piedra, Tlalpan;Local;Mexico, CDMX;14040;19.3010623,-99.1624148;54244139;;;;;;;;;;;;
;145;62;Eukanuba;Av. Circunvalación Poniente, Vista del Valle, Naucalpan ;Mz. 339 Lt. C  Centro Comercial Local 13;Naucalpan, Estado de México;53296;19.4775052,-99.268818;;;;;;;;;;;;;
;145;62;Eukanuba;Av. Euskaro 218, Industrial, Gustavo A. Madero;Local 1;Mexico, CDMX;7800;19.4807121,-99.1277739;55776388;;;;;;;;;;;;
;145;62;Eukanuba;Blvd. Bellavista 22, Lomas de Bellavista, Atizapan;Plaza Local A2;Atizapán de Zaragoza, Estado de México;52994;19.5208438,-99.2511434;53934347;;;;;;;;;;;;
;145;62;Eukanuba;Av. Chac mooll, Alfredo B BONFIL, Cancun;Manzana 11 lote 1 super manzana 311 Multiplaza loca A 43;Cancún, Quintana Roo;77560;21.0496907,-86.8563293;9982104452;;;;;;;;;;;;
;145;62;Eukanuba;Los Heroes Coacalco 55712, San Francisco, Coacalco;Centro Comercial Local A18;Coacalco, Estado de México;55700;19.6445642,-99.1082186;63878098;;;;;;;;;;;;
;145;62;Eukanuba;Av. La Luna, super manzana 49, Cancun;multiplaza soriana Local 5;Cancún, Quintana Roo;77533;21.1416356,-86.8467941;9981063938;;;;;;;;;;;;
;145;62;Eukanuba;Miguel Aleman 5054, Lindavista, Guadalupe;multiplaza Local 102;Guadalupe, Nuevo León;77130;25.6902665,-100.2476574;8183344596;;;;;;;;;;;;
;145;62;Eukanuba;Blvd. Manuel Avila Camacho 2550,  San Lucas Tepetlacalco, Tlalnepantla ;Local 9;Tlanepantla, Estado de México;54040;19.5433407,-99.2131747;53059273;;;;;;;;;;;;
;145;62;Eukanuba;Barranca del Muerto 370, Guadalupe Inn, Alvaro Obregón;Calle;Mexico, CDMX;1020;19.3628472,-99.1884126;55938900;;;;;;;;;;;;
;145;62;Eukanuba;Manuel Acuña 3184,  Monrraz, Guadalajara;Plaza Atelier;Guadalajara, Jalisco;44670;20.68509,-103.3951493;3338131739;;;;;;;;;;;;
;145;62;Eukanuba;Monte Blanco 621, Residencial San Agustin, San Pedro Garza García;Local 3;San Pedro Garza García, Nuevo León;66260;25.6510506,-100.3398741;8183636072;;;;;;;;;;;;
;145;62;Eukanuba;Jose Maria Morelos 2201, granjas el palote, León;Placita el campestre 2 Local 1;León, Guanajuato;37130;21.1689479,-101.6938529;4777810582;;;;;;;;;;;;
;145;62;Eukanuba;Blvd. Adolfo Lopez Mateos 1702, Parque manzanares, Leon;Plaza galerias local 6 y 7;León, Guanajuato;37510;21.116134,-101.6587148;4777631982;;;;;;;;;;;;
;145;62;Eukanuba;Calz. del valle Alberto Santos 401, Valle, San Pedro Garza García ;Calzada 401 local 79;San Pedro Garza García, Nuevo León;76220;25.6555237,-100.3613412;8183350890;;;;;;;;;;;;
;145;62;Eukanuba;Carretera Mty saltillo 2640, cumbres de santa catarina, santa catarina;Heb La puerta;Santa Catarina, Nuevo León;66358;25.6841767,-100.4866262;8180324327;;;;;;;;;;;;
;145;62;Eukanuba;Blvd. Adolfo López Mateos 1245, Jardines de Celaya 1ra seccion, Celaya;Plaza La Punta Local 2;Celaya, Guanajuato;38080;20.5175457,-100.7908461;4611594494;;;;;;;;;;;;
;145;62;Eukanuba;Av. Alfredo del mazo 705, Tlacopa, Toluca de Lerdo;Chedraui Toluca  local 15 A;Toluca, Estado de México;50010;19.3095258,-99.6326783;7222374021;;;;;;;;;;;;
;145;62;Eukanuba;Av. Plazas de Aragon 1, Plaza Aragón, Nezahualcóyotl;Centro Comercial Local 20;Nezahualcóyotl, Estado de México;57139;19.3999118,-98.987258;26174463;;;;;;;;;;;;
;145;62;Eukanuba;4a. Avenida 257, Benito Juárez, Nezahualcóyotl;Centro Comercial;Nezahualcóyotl, Estado de México;5700;19.3999118,-98.987258;54413068;;;;;;;;;;;;
;145;62;Eukanuba;Av. Cristina Larralde 500, Valle de Puente, san nicolas de los garza;local C;San Nicolás de los Garza, Nuevo León;66460;25.7469743,-100.286995;8180573687;;;;;;;;;;;;
;145;62;Eukanuba;Av. Anillo periferico 203,  San Jeronimo, Monterrey;Local 3;Monterrey, Nuevo León;64634;25.6953381,-100.3790312;8181439369;;;;;;;;;;;;
;145;62;Eukanuba;Av. Santa Cruz Ojo de Agua 88, San Francisco Cuatliquixca, Tecamac;Plaza Local 24;Tecamac, Estado de México;55760;19.6657196,-99.0177302;59387739;;;;;;;;;;;;
;145;62;Eukanuba;Manuel Izaguirre 2, Ciudad Satelite, Atizapan;Plaza Local 10;Atizapán de Zaragoza, Estado de México;52994;19.514216,-99.231626;53740671;;;;;;;;;;;;
;145;62;Eukanuba;Av. Teziutlan Norte 85, La Paz, Puebla;Calle Local 1;Puebla, Puebla;72160;19.0578027,-98.2296558;12222302562;;;;;;;;;;;;
;145;62;Eukanuba; MZ.11 LOTE. 1110-16,  SUPER MANZANA. 248, Benito Juárez;MULTIPLAZA CANCUN LOCAL. B-17;Cancún, Quintana Roo;77516 ;21.1416356,-86.8467941;(998) 1326078;;;;;;;;;;;;
;145;62;Eukanuba;Boulevares Forjadores 3401, Cholula de Rivadavia Centro, San Pedro Cholula;Plaza Local 28;San Pedro Cholula, Puebla;72760;19.0773198,-98.29572;12223297046;;;;;;;;;;;;
;145;62;Eukanuba;Av. Forjadores de Puebla 1009, San Juan Cuatlaucingo, Cuautlancingo;Plaza Local B-3 ;Cuautlancingo, Puebla;72700;19.0742132,-98.258185;12222851640;;;;;;;;;;;;
;145;62;Eukanuba;Av. Calzada de las Armas 315, San Pedro Xalpa, Atizapan;Local 11;Atizapán de Zaragoza, Estado de México;52994;19.4863418,-99.217166;20091442;;;;;;;;;;;;
;145;62;Eukanuba;Anfora 71, Azteca,  Venustiano Carranza;Plaza Local 26;Mexico, CDMX;15320;19.4354414,-99.1101339;52530872;;;;;;;;;;;;
;145;62;Eukanuba;Av. Lopez Mateos 3476, La Calma, Zapopan;;Zapopan, Jalisco;45070;20.637844,-103.4121375;;;;;;;;;;;;;
;145;62;Eukanuba;Venustiano Carranza 92, Col. Centro, Cuauhtémoc;;México, CDMX;6060;19.4308402,-99.1319164;51332800;;;;;;;;;;;;
;145;62;Eukanuba;Centro Comercial Angelópolis.  Av. Del niño Poblano 2510, Vía Atlixcayotl;;Puebla, Puebla;72430;19.0176377,-98.2504373;12222297500;;;;;;;;;;;;
;145;62;Eukanuba;Galerías Atizapán. Avenida Adolfo Ruiz Cortinez 255, Col. Las Margaritas;;Atizapán, Estado de México;52977;19.549498,-99.274092;50773270;;;;;;;;;;;;
;145;62;Eukanuba;Galerias Cuernavaca. Autopista México-Acapulco km 87.5 Loc 310 planta Alta;;Cuernavaca, Morelos;62370;18.936226354394,-99.1877889633178;17773225355;;;;;;;;;;;;
;145;62;Eukanuba;Centro Comercial Parque Lindavista. Colector 13, 280 Col. Magdalena de las Salinas, Gustavo A. Madero;;México CDMX;7760;19.4859319761989,-99.1312909126281;51190496;;;;;;;;;;;;
;145;62;Eukanuba;Avenida Central esquina Primero de Mayo, Fracc. Las Américas ;;Ecatepec, Estado de México;55075;19.5832429418076,-99.0234661102294;24864649;;;;;;;;;;;;
;145;62;Eukanuba;Boulevar Luis Encinas Johnson, Col. San Benito ;;Hermosillo, Sonora;83190;29.0868656,-110.9635931;16622892800;;;;;;;;;;;;
;145;62;Eukanuba;Av. Insurgentes Sur 1310, Col. Del Valle, Benito Juárez;;México, CDMX;3100;19.3731585291722,-99.1785621643066;54801300;;;;;;;;;;;;
;145;62;Eukanuba;Centro Comercial de la Plaza Mayor. Blvd. Juan José Alonso de Torres 3002, Col. Valle del Campestre;;León, Guanajuato;37150;21.1576391588319,-101.694602966308;14777102100;;;;;;;;;;;;
;145;62;Eukanuba;Mariano Escobedo 425, Col. Chapultepec Morales, Miguel Hidalgo;;México, CDMX;11570;19.4335717731641,-99.1826605796813;53286400;;;;;;;;;;;;
;145;62;Eukanuba;Circuito Centro Comercial 2251, Col. Ciudad Satélite;;Naucalpan, Estado de México;53100;19.5097361,-99.233026;57293100;;;;;;;;;;;;
;145;62;Eukanuba;Plaza las Americas. Blvd. Adolfo Ruiz Cortines esq con Américas, Col. Costa Verde;;Veracruz;94290;19.1653004,-96.111619;12299892400;;;;;;;;;;;;
;145;62;Eukanuba;Av. Periférico Sur 4690, Col. Ampliación Jardines Pedregal de San Angel, Coyoacán;;México, CDMX;4500;19.3043390819109,-99.1901278495788;54471200;;;;;;;;;;;;
;145;62;Eukanuba;Blvd. Ixtapan de la Sal Norte 126, Col. La Purísima Metepec ;;Metepec, Estado de México;52140;19.2588079764274,-99.6203756332397;172762700;;;;;;;;;;;;
;145;62;Eukanuba;Calzada del Hueso 519, Col. Residencial Acoxpa, Coyoacán;;México, CDMX;14300;19.3027189751507,-99.1233086585998;56279600;;;;;;;;;;;;
;145;62;Eukanuba;Centro Comercial las Américas. Av. Tulum Sur 260;;Cancún, Qro.;77500;21.1482863,-86.8248811;19988811500;;;;;;;;;;;;
;145;62;Eukanuba;Av. Vasco de Quiroga 3800, Col. Santa Fe Peña Blanca, Álvaro Obregón;;México, CDMX;5109;19.3771349,-99.2526881;52579000;;;;;;;;;;;;
;145;62;Eukanuba;Calle 60, 299 Carretera Mérida-Progreso Km 8.5, Col. Unidad Revolución Cordemex;;Mérida, Yucatán;97110;21.0396260290065,-89.6306705474853;19999427200;;;;;;;;;;;;
;145;62;Eukanuba;Blvd. Belisario Dominguez 1691, Col. Jardines de Tuxtla;;Tuxtla Gutierrez, Chiapas;29020;16.7555106,-93.1496802;19616173500;;;;;;;;;;;;
;145;62;Eukanuba;Autopista México-Acapulco Km. 87.850, Esq. Av. De los 50 Metros s/n, Col. Ricardo Flores Magón 5to Fraccionamiento;;Cuernavaca, Morelos;62370;18.936226354394,-99.1877889633178;17771007400;;;;;;;;;;;;
;145;62;Eukanuba;Paseo Tabasco 1405, Col. Desarrollo Urbano Tabasco 2000;;Villa Hermosa, Tabasco;86035;17.987557,-92.929147;19933107700;;;;;;;;;;;;
;145;62;Eukanuba;Av. Rafael Sancio 150, Col. Vallarta Camichines;;Zapopan, Jalisco;45020;20.6748561,-103.4299178;;;;;;;;;;;;;
;145;62;Eukanuba;Melchor Ocampo 108, Col. Oriente Centro;;Nuevo León, Monterrey;64000;25.6664814,-100.3157991;18183895500;;;;;;;;;;;;
;145;62;Eukanuba;Avenida 1° de Mayo Esquina Avenida Central Mz 04 Lt 02 s/n, Col. Plaza las Américas;;Ecatepec, Estado de México;55075;19.5822603,-99.020464;58361100;;;;;;;;;;;;
;145;62;Eukanuba;Periferico de la Juventud s/n y Avenida Politécnico Nacional, Col. Quintas del Sol ;;Chihuahua, Chihuahua;31250;28.6391093,-106.1226266;16144320100;;;;;;;;;;;;
;145;62;Eukanuba;Av. Cuauhtémoc 462, Col. Narvarte, Benito Juárez;;México, CDMX;3020;19.404677,-99.1212243;56361100;;;;;;;;;;;;
;145;62;Eukanuba;Plaza Comercial Galerías Laguna. Boulevard Independencia 6000 Esq periferico s/n, Col. Residencial El Fresno;;Torreón, Coahuila;27018;25.5816207788075,-103.404479026794;18717491200;;;;;;;;;;;;
;145;62;Eukanuba;Las Américas Xalapa. Carretera Xalapa Veracruz Km. 2.5, 680 Ancla 1, Col. Pastoresa;;Xalapa, Veracruz;91193;19.5132181249046,-96.8764972686767;12281411100;;;;;;;;;;;;
;145;62;Eukanuba;Centro Comercial Galerías Querétaro. Av. 5 de Febrero Sur, Col. Virreyes;;Querétaro, Querétaro;76000;20.5778719821652,-100.40461063385;14421961800;;;;;;;;;;;;
;145;62;Eukanuba;Plaza Parque Lindavista. Calle del Colector 13, 280 Esq. Río Bamba Col. Magdalena de las Salinas;;México, CDMX;7760;19.4859319761989,-99.1312909126281;57471000;;;;;;;;;;;;
;145;62;Eukanuba;Av. Lazaro Cárdenas 1000 Oriente, Col.Valle del Mirador;;Monterrey, Nuevo León;66260;25.638102,-100.314059;18181334300;;;;;;;;;;;;
;145;62;Eukanuba;Boulevard José Diego Valadez 1676, Col. Desarrollo Urbano Tres Rios;;Culiacán, Sinaloa;80000;24.8150175470032,-107.401292324066;16677521361;;;;;;;;;;;;
;145;62;Eukanuba;Plaza Forum Av. Universidad Veracruzana Km. 8, Col. Santa Rosa Ampl.;;Coatzacoalcos, Veracruz;96535;18.1417328394482,-94.4874000549316;(921)2117000;;;;;;;;;;;;
;145;62;Eukanuba;Boulevard Villas de Irapuato 1443, Col. Ejidos de Irapuato ;;Irapuato, Guanajuato;36670;20.680449868186,-101.379733085632;14626068500;;;;;;;;;;;;
;145;62;Eukanuba;Centro Comercial Antera. Blvd. De Zacatecas Norte 851, Col. Trojes de Alonso;;Aguascalientes, Aguascalientes;20200;21.9243950241689,-102.289409637451;14491393400;;;;;;;;;;;;
;145;62;Eukanuba;Centro Comercial Galerías Pachuca. Camino Real de la Plata 100, Zona Plateada;;Pachuca, Hidalgo;42080;20.098213780647,-98.7675833702087;;;;;;;;;;;;;
;145;62;Eukanuba;Plaza Cristal. Blvd. Lázaro Cárdenas 807, Colonia Morelos;;Poza Rica, Veracruz;93340;20.5356198694109,-97.4708747863769;17828262300;;;;;;;;;;;;
;145;62;Eukanuba;Su Santidad Juan Pablo II  48, Plaza Mocambo;;Boca del Río, Veracruz;94290;19.1591139602092,-96.1096858978271;12299894000;;;;;;;;;;;;
;145;62;Eukanuba;Plaza El Dorado. Av. Nereo Rodriguez Barragan 450, Col. Del Valle;;San Luis Potosí, SLP.;78200;22.1555516813189,-101.004395484924;14448341900;;;;;;;;;;;;
;145;62;Eukanuba;Av. Lic. Enrique Ramírez Miguel 1000, Col. Las Américas;;Morelia, Michoacán;58270;19.6896878061483,-101.157774925231;(443)1132600;;;;;;;;;;;;
;145;62;Eukanuba;Centro Comercial Paseo Altozano Morelia. Av. Montaña Monarca Norte 1000 Col. Ejido Jesús del Monte;;Morelia, Michoacán;58350;19.6562280321009,-101.163911819458;(443)1138100;;;;;;;;;;;;
;145;62;Eukanuba;Centro Comercial Villa Asunción. Calle Mahatma Gandhi s/n, Col. Pilar Blanco;;Aguascalientes, Aguascalientes;20280;21.8500075596365,-102.293035984039;(449)9104900;;;;;;;;;;;;
;145;62;Eukanuba;Av. Patria 2085, Col. Fraccionamiento Plaza Andares ;;Zapopan, Jalisco;45080;20.7120246170243,-103.411881923675;13336475761;;;;;;;;;;;;
;145;62;Eukanuba;Centro Comercial Parque Tezontle. Av. Canal de Tezontle 1512, Col. Dr Alfonso Ortiz Tirado ;;México, CDMX;9020;19.3852227312318,-99.0952205657958;56401400;;;;;;;;;;;;
;145;62;Eukanuba;Av. Ruíz Cortines 501, Col. Lomas de Atizapán;;Atizapán, Estado de México;52977;19.5493970267276,-99.2737913131713;50771300;;;;;;;;;;;;
;145;62;Eukanuba;Av. Hacienda Peñuelas 6769, Col. Cumbres de las Palmas;;Monterrey, Nuevo León;6419;25.7354747,-100.3948055;(81)81211300;;;;;;;;;;;;
;145;62;Eukanuba;Av. Circunvalación 1430, Col. El Espinal;;Orizaba, Veracruz;94330;18.8639352840783,-97.0961165428161;(272)7281200;;;;;;;;;;;;
;145;62;Eukanuba;Carretera a Monterrey, Esquina Libramiento Naciones Unidas, Col. Ejidos Benito Juárez;;Ciudad Victoria;87028;23.7745057686004,-99.1362047195434;18341531100;;;;;;;;;;;;
;145;62;Eukanuba;Av. Héroes de Chapultepec, Antigua Unidad Minera, El Bote Cd. Argentum;;Zacatecas, Zacatecas;98040;22.768564263002,-102.580075263977;(492)4918000;;;;;;;;;;;;
;145;62;Eukanuba;Blvd. De las Naciones 1813, esquina Costera de las Palmas. Fracc. Playa Diamante;;Acapulco, Guerrero;39970;16.7726993039725,-99.7761797904968;(744)4352900;;;;;;;;;;;;
;145;62;Eukanuba;Bernardo Quintana 116 - 2, Fracc. Carretas;;Querétaro, Querétaro;76050;20.5954973,-100.3717735;(442)2130810;;;;;;;;;;;;
;145;62;Eukanuba;Av. López Mateos Sur 2998 Col. Santa Isabel, Tlajomulco de Zuñiga;;Jalisco;45645;20.5804534,-103.4497862;(33)36126074;;;;;;;;;;;;
;145;62;Eukanuba;Av. Base Aérea 270 B, Col. San Juan de Ocotán;;Zapopan, Jalisco;45019;20.7536352,-103.4425008;(33)36277312;;;;;;;;;;;;
;145;62;Eukanuba;Boulevard F. Magnocentro 12, Villa de las Palmas;;Huixquilucan, Estado de México;52760 ;19.4010942,-99.2721572;(55)52903788;;info@petco.com.mx;;;;;;;;;;
;145;62;Eukanuba;Av. San Jerónimo 819, Col. San Jerónimo  Lídice, Magdalena Contreras;;Mexico, CDMX;10200;19.329976,-99.2159234;(55)56681203;;info@petco.com.mx;;;;;;;;;;
;145;62;Eukanuba;Rinconada de Uranio 77, Manzana 11, Col. Lomas Del Pedregal, Tlalpan;;México, CDMX;14150;19.304673,-99.221463;(55)26158764;;info@petco.com.mx;;;;;;;;;;
;145;62;Eukanuba;Insurgentes Sur 345 Col. Hipódromo Condesa;;México, CDMX;6170;19.4117856,-99.1667313;(55)55645025;;info@petco.com.mx;;;;;;;;;;
;145;62;Eukanuba;C.C Patio Santa Fe Prol. Paseo de la Reforma 400 Loc. JA-02 Col Peña Blanca Santa Fe;;México, CDMX;1210;19.3768107,-99.2547936;52925293;;info@petco.com.mx;;;;;;;;;;
;145;62;Eukanuba;C.C Gran Terraza Lomas Verdes Colina de Paz 25 Col. Boulevares;;Naucalpan, Estado de México;53140;19.4952053,-99.2468941;53740985;;info@petco.com.mx;;;;;;;;;;
;145;62;Eukanuba;Av. Ejercito Nacional 769, Col. Ampliación Granada ;;México, CDMX;11520;19.4399293,-99.2002894;55450043;;info@petco.com.mx;;;;;;;;;;
;145;62;Eukanuba;Av. Jorge Jimenez Cantú Lt 1 Mz 1 Col. Fracc. Residencial Campestre Bosque Esmeralda;;Atizapán, Estado de México;52930;19.553332,-99.2912868;53080905;;info@petco.com.mx;;;;;;;;;;
;145;62;Eukanuba;Calle Fernando Leal Novelo 4, Ciudad Satélite;;Naucalpan, Estado de México;53100;19.5073574,-99.2339534;55629093;;info@petco.com.mx;;;;;;;;;;
;145;62;Eukanuba;Calle Huichapan 2, Hipódromo de la Condesa;;México, CDMX;6100;19.4162502,-99.1687755;52564670;;info@petco.com.mx;;;;;;;;;;
;145;62;Eukanuba;Calle Noche de Paz 49, Col. Navidad, Cuajimalpa;;México, CDMX;5210;19.3736856,-99.2783916;50353508;;info@petco.com.mx;;;;;;;;;;
;145;62;Eukanuba;Blvd. Manuel Ávila Camacho N.1007, San Lucas Tepetlacalco;;Tlanepantla, Estado de México;54055;19.521051,-99.2292117;50845011;;info@petco.com.mx;;;;;;;;;;
;145;62;Eukanuba;Pabellón Metepec Blvrd. Toluca Metepec No 505 Col. La Purisima;;Metepec, Estado de México;52169;19.2604782,-99.6292571;7222127726;;info@petco.com.mx;;;;;;;;;;
;145;62;Eukanuba;Fiesta Inn Pachuca Gran Patio, Local A-02 Blvrd. Luis Donaldo Colosio No. 2009 Col ExHacienda de Coscotitlán;;Pachuca, Hidalgo;42094;20.0930431,-98.759634;7717104711;;info@petco.com.mx;;;;;;;;;;
;145;62;Eukanuba;Av. Canal de Miramontes 2600, Col. Los Cipreses, Coyoacan;;México, CDMX;4830;19.3199324,-99.1308316;56772368;;info@petco.com.mx;;;;;;;;;;
;145;62;Eukanuba;Av. Universidad 975, Col. Del Valle Sur, Benito Juárez;;México, CDMX;3100;19.3681319,-99.1669006;55245123;;info@petco.com.mx;;;;;;;;;;
;145;62;Eukanuba;C.C Oasis Coyoacán, Avenida Miguen Ángel de Quevedo 217, Coyoacán, Oxtopulco;;México, CDMX;4310;19.34641,-99.1793869;56587045;;info@petco.com.mx;;;;;;;;;;
;145;62;Eukanuba;Circuito Interior Juan Pablo II 2518 Col. Benito Juárez ;;Puebla, Puebla;72410;19.049091,-98.1536043;2222796739;;info@petco.com.mx;;;;;;;;;;
;145;62;Eukanuba;Vía Atlixcayotl 6510, Col. San Bernardino, Tlaxcalanzingo, San Andrés Cholula;;San Andrés Cholula, Puebla;72830;19.0058922,-98.2675234;2222838503;;info@petco.com.mx;;;;;;;;;;
;145;62;Eukanuba;Calle 22 No. 280 Col. Fraccionamiento Monterreal ;;Merida, Yucatan;97133;21.0199667,-89.5962001;;;info@petco.com.mx;;;;;;;;;;
;145;62;Eukanuba;Calle Miguel Angel No. 170 Col. Santa María Nonoalco, Delegación Benito Juárez;;México, CDMX;3910;19.3845924,-99.1888585;56116970;;info@petco.com.mx;;;;;;;;;;
;145;62;Eukanuba;Av. Anillo Vial II Fray Junipero Serra S/N Colonia al Salitre;;Santiago de Querétaro, Querétaro;76127;20.6765566,-100.4294502;4421998348;;info@petco.com.mx;;;;;;;;;;
;145;62;Eukanuba;Cerro Gordo del Campestre 110 Col. Valle del Campestre;;León, Guanajuato;37150;21.1618283,-101.6937306;4777810720;;info@petco.com.mx;;;;;;;;;;
;145;62;Eukanuba;Av. Las Américas 655, Col. Ladrón de Guevara;;Guadalajara, Jalisco;44670;20.689001,-103.373723;3336158761;;info@petco.com.mx;;;;;;;;;;
;145;62;Eukanuba;Av. López Mateos Sur 3476-A. Col. La Calma ;;Zapopan, Jalisco;45070;20.637844,-103.4121374;3336327873;;info@petco.com.mx;;;;;;;;;;
;145;62;Eukanuba;Av. Acueducto 6050 Col. Lomas del Bosque;;Zapopan, Jalisco;45110;20.722584,-103.4165989;3336114162;;info@petco.com.mx;;;;;;;;;;
;145;62;Eukanuba;Av. Adolfo López Mateos Sur No. 7000 - Local 10 Col Fracc. La Rioja;;Tlajomulco, Jalisco;45645;20.5691952,-103.4575915;3316550961;;info@petco.com.mx;;;;;;;;;;
;145;62;Eukanuba;Av. Vallarta 3300, Col. Vallarta Norte;;Guadalajara, Jalisco;44690;20.674587,-103.393188;3336304963;;info@petco.com.mx;;;;;;;;;;
;145;62;Eukanuba;Plaza Luciérnaga, Local 5A-5, Libramiento José Manuel Zavala No. 165 Col. La Luciérnaga;;San Miguel de Allende, Guanajuato;37745;20.9034804,-100.7276174;4151205359;;info@petco.com.mx;;;;;;;;;;
;145;62;Eukanuba;Paseo Irapuato No. 1101 Col. 1ra Sección San Gabriel;;Irapuato, Guanajuato;36640;20.6823519,-101.367081;4626351567;;info@petco.com.mx;;;;;;;;;;
;145;62;Eukanuba;Avenida José Vasconcelos 160, Santa Engracia;;San Pedro Garza García, Nuevo León;66250;25.6526682,-100.346799;8183638637;;info@petco.com.mx;;;;;;;;;;
;145;62;Eukanuba;Plaza San Pedro Av. Humberto Lobo 520, Loc K12, Col. Del Valle;;San Pedro Garza García, Nuevo León;66220;25.665228,-100.3829183;8183783181;;info@petco.com.mx;;;;;;;;;;
;145;62;Eukanuba;C.C Serena- Carretera Nacional 500, Edificio N, Loc N-017 Col. La Estanzuela;;Monterrey, Nuevo León;64989;25.5766022,-100.2477979;8196886752;;info@petco.com.mx;;;;;;;;;;
;145;62;Eukanuba;Carretera a Los González S/N Ex-Hacienda;;San José de los Cerritos, Saltillo;25293;25.462109,-100.951583;8449060262;;info@petco.com.mx;;;;;;;;;;
;145;62;Eukanuba;Av. Pase de los Leones No. 1261 Col. Cumbres del Mediterráneo;;Cumbres del Mediterráneo, Nuevo León;64619;25.7316697,-100.4008988;8113065572;;info@petco.com.mx;;;;;;;;;;
;145;62;Eukanuba;Vía Jose Lopez Portillo No. 1, Loca C210, San Francisco Coacalco;;Coacalco, Estado de México;55712;19.6320116,-99.1245927;;;;;;;;;;;;;
;145;62;Eukanuba;Boulevar Juann Alonso de Torres Pte 2202, Valle del Campestre;;León, Guanajuato;37150;21.1571201,-101.6965717;14777795986;;;;;;;;;;;;
;145;62;Eukanuba;Av. Andrés Q. Roo Mz. 10 Lt.1, Supermanzana 37;;Cancún, Quintana Roo;77500;21.151711,-86.848513;19988723638;;;;;;;;;;;;
;145;62;Eukanuba;Calzada de Guadalupe 431 Entre Henrry Ford y Victoria, Guadalupe Tepeyac;;México, CDMX;7840;19.4716989,-99.1197829;;;;;;;;;;;;;
;145;62;Eukanuba;Av. Pedro Sainz de Baranda S/N Local 140 Ah-Kim-Pech, Pedro Sainz;;San Francisco Campeche, Campeche;24014;19.8568255,-90.5230643;19816881422;;;;;;;;;;;;
;145;62;Eukanuba;Av. De La Marina 6204 Lote 14 Al 17 Local 127, Maria Mazatlán;;Mazatlán, Sinaloa;82103;23.2797198,-106.450409;16696880696;;;;;;;;;;;;
;145;62;Eukanuba;Egipto 142. local A04. Colonia Claveria. Del Azcapotzalco.;;México, CDMX;2080;19.4635215,-99.1819639;15553413238;;;;;;;;;;;;
;145;62;Eukanuba;Calzada Vallejo No. 1090 Local PC16, PC17, Santa Cruz de las Salinas;;México, CDMX;2610;19.4872442,-99.1519222;;;;;;;;;;;;;
;145;62;Eukanuba;Boulevares Ecuestre L-1 M-1, Residencial Caleto;;Querétaro, Querétaro;76220;20.7060678,-100.4435154;14426881095;;;;;;;;;;;;
;145;62;Eukanuba;Olmo No. 133, Residencial Colon;;Toluca, Estado de México;50120;19.2791731,-99.6599811;;;;;;;;;;;;;
;145;62;Eukanuba;BLVD. ADOLFO LÒPEZ MATEOS # 2518  LOCAL 70, JARDINES DE JEREZ;;León, Guanajuato;37530;21.0995314,-101.6362884;14777112892;;;;;;;;;;;;
;145;62;Eukanuba;Avenida Tecnologico, Ex ejido ojocaliente;;Aguascalientes, Aguascalientes; 20198;21.8782306,-102.2600139;14449702495;;;;;;;;;;;;
;145;62;Eukanuba;Carretera Nacional No. 268, Local Segundo Sector, Col. Privada Residencial;;Monterrey, Nuevo León;64984;25.5761001,-100.24748;18113062726;;;;;;;;;;;;
;145;62;Eukanuba;Avenida Miguel Alemán número 200, La Talaverna;;San Nicolás de la Garza, Nuevo León;66473;25.7191534,-100.2196621;18121338300;;;;;;;;;;;;
;145;62;Eukanuba;Av. Stim No. 12, Lomas de Chamizal;;México, CDMX;5129;19.397737,-99.257971;15552458905;;;;;;;;;;;;
;145;62;Eukanuba;Av de los bosques #128, Local 5 y 6, Manzana 54, Fraccionamiento Lomas de Tecamachalco;;Huixquilucan, Estado de México;52780;19.4112142,-99.2506432;15552510499;;;;;;;;;;;;
;145;62;Eukanuba; Av. Puente de Tecamachalco No. 16-B Col. Tecamachalco;;Naucalpan, Estado de México;53831;19.4304514,-99.2251564;12226230018;;;;;;;;;;;;
;145;62;Eukanuba;Calzada de Tlalpan No. 4824, Barrio del Niño Jesús;;México, CDMX;14080;19.2869322,-99.1632374;15513151522;;;;;;;;;;;;
;145;62;Eukanuba;Horacio No. 513-A, Polanco;;México, CDMX;11570;19.4335888,-99.1894077;15555458468;;;;;;;;;;;;
;145;62;Eukanuba;Blvd. Héroes del 5 de mayo No. 510, Local 32, Anzures;;Puebla, Puebla;72530;19.0283701,-98.2025153;12222111081;;;;;;;;;;;;
;145;62;Eukanuba;Blvd. Córdoba Fortín No. 4027 Loc. 10 y 11, Col. Sta. Leticia;;Córdoba, Veracruz;94470;18.9024548,-96.9596692;12717368751;;;;;;;;;;;;
;145;62;Eukanuba;Carretera Federal Xalapa-Veracruz Km. 2 No. 680 Local 37 Zona A, Col. Pastoresa;;Xalapa, Veracruz;91193;19.5130791,-96.877884;12288136598;;;;;;;;;;;;
;145;62;Eukanuba;Av Ruiz Cortinez  y Av Jalapa No. 279 Loc 25 y 25 A, Unidad del Bosque ;;Xalapa, Veracruz;91130;19.5592543,-96.9292573;12288904031;;;;;;;;;;;;
;145;62;Eukanuba;Prolongación Paseo de Tabasco No. 1405 Loc. 174, Col. Desarrollo Urbano ;;Villa Hermosa, Tabasco;86035;18.0009122,-92.9462082;19933163742;;;;;;;;;;;;
;145;62;Eukanuba;Blvd. Adolfo Ruiz Cortinez No. 3495 Loc. C-6, Fracc Jardines de Mocambo;;Boca del Río, Veracruz;94270;19.1435565,-96.1044429;;;;;;;;;;;;;
;145;62;Eukanuba;Antigua Carretera Coatzacoalcos-Minatitlán KM-8 PB Local 36, Predio SantMoises Padillaosa;;Coatzacoalcos, Veracruz;96538;18.1423567,-94.4882664;19212128805;;;;;;;;;;;;
;145;62;Eukanuba;Av. Samarkanda No. 202 Loc. 1, Fracc. Bonanza ;;Villa Hermosa, Tabasco;86030;18.0006316,-92.9409959;19933168158;;;;;;;;;;;;
;145;62;Eukanuba;Carretera PozMoises Padillaica - Cazonez Km 50 No. 4706  Loc S55 S56, Col LMoises Padillaueda;;PozMoises Padillaica de Hidalgo, Veracruz;93306;20.5705151,-97.437022;17821116053;;;;;;;;;;;;
;145;62;Eukanuba;Blvd. Belisario Dominguez  No. 1861 Locales I-29 e I-30, Fraccionamiento Bugambilias;;Tuxtla Gutierrez, Chiapas;29058;16.7548423,-93.149307;19616152179;;;;;;;;;;;;
;145;62;Eukanuba;AV. CIRCUNVALACION No. 1430 LOC. 37 Y 38, COL. EL ESPINAL;;Orizaba, Veracruz;94330;18.8632778,-97.0972533;12727216744;;;;;;;;;;;;
;145;62;Eukanuba;Periférico Carlos Pellicer Cámara No. 129, Loc 137 (con Av Sandino), 1ro de Mayo;;Centro de Tabasco, Tabasco;86190;17.9660671,-92.9407041;19932535253;;;;;;;;;;;;
;145;62;Eukanuba;Carretera paso del Toro, Boca del Río, San Anton Lizardo No. 4405, Local J1, El novillero;;Boca del Río, Veracruz;94290;19.0952829,-96.1046467;12299863437;;;;;;;;;;;;
;145;62;Eukanuba;Av. Araucarias 501, Local 4, Indeco Animas ;;Xalapa, Veracruz;91190;19.529557,-96.893914;12288125775;;;;;;;;;;;;
;145;62;Eukanuba;Carretera Puerto Real-Campeche Km 2+500,  Colonia Fracc. Palmira;;Ciudad del Carmen, Campeche;24100;18.6564548,-91.7914433;19381189564;;;;;;;;;;;;
;145;62;Eukanuba;Av. Magnocentro, mz 2 Lt 1, Bosques de las Palmas;;Huixquilucan, Estado de México;52760;19.399437,-99.274771;15552901618;;;;;;;;;;;;
;145;62;Eukanuba;AV.DEL IMAN N151 LOCAL 99B ;;México, CDMX;4700;19.3066473,-99.1655179;15554243802;;;;;;;;;;;;
;145;62;Eukanuba;Nextengo 78, 2A, Local L-09, Santa Cruz Acayucan;;México, CDMX;2770;19.472251,-99.193127;15524518880;;;;;;;;;;;;
;145;62;Eukanuba;Av. Tecnológico No. 1600 Norte Local 01, San salvador Tizatlalli;;Metepec, Estado de México;52172;19.6518329,-99.1898918;17222714657;;;;;;;;;;;;
;145;62;Eukanuba;Av. San Jerónimo 630 y 632, San Jerónimo Lidice;;México, CDMX;10200;19.330757,-99.2090719;15556835406;;;;;;;;;;;;
;145;62;Eukanuba;Atenas 106, Local 26, Fracccionamiento Valle Dorado;;México, CDMX;54020;19.5514641,-99.2098355;15553796224;;;;;;;;;;;;
;145;62;Eukanuba;Plaza Fiesta Izcalli, Local 8F, Arcos del Alba;;Cuautitlan, Estado de México;54700;19.6486827,-99.207272;15558733622;;;;;;;;;;;;
;145;62;Eukanuba;Canal de Miramontes 2665, Prados de Coyoacan;;México, CDMX;4810;19.285884,-99.137977;15556796650;;;;;;;;;;;;
;145;62;Eukanuba;Calzada del Desierto de los Leones No. 5260 (antes 1304), Tetelpan;;México, CDMX;1700;19.339382,-99.2322359;15585907317;;;;;;;;;;;;
;145;62;Eukanuba;Av. Dr. Jorge Jiménez Cantú S/N, Lote 18 Local 8-C, Ex hacienda de Sayavedra;;Atizapan, Estado de México;52938;19.5596142,-99.2965017;;;;;;;;;;;;;
;145;62;Eukanuba;Av. Lago de Guadalupe  No.368 Local ;;Atizapan, Estado de México;52929;19.6062,-99.228394;15558198326;;;;;;;;;;;;
;145;62;Eukanuba;Calz. Arenal No. 575 Locales A y B, Tepepan;;México, CDMX;14610;19.2818889,-99.1437779;15556538536;;;;;;;;;;;;
;145;62;Eukanuba;Miguel Ángel de Quevedo No. 739, Los Reyes Coyoacan;;México, CDMX;4320;19.3440887,-99.1612763;15556592356;;;;;;;;;;;;
;145;62;Eukanuba;José María Vertiz 1295 Local ;;México, CDMX;3650;19.3751382,-99.1544397;15524559696;;;;;;;;;;;;
;145;62;Eukanuba;Camino de Sta. Teresa No. 4020-22A, Jardines del Pedregal  ;;México, CDMX;1900;19.309376,-99.2148735;15556522295;;;;;;;;;;;;
;145;62;Eukanuba;Retorno 10 de Fray Servando Teresa de Mier No. 4 Locales C y D, Jardín Balbuena;;México, CDMX;15900;19.4186048,-99.1057411;15557625017;;;;;;;;;;;;
;145;62;Eukanuba;Av. Adolfo López Mateos No. 201 local 142, Santa Cruz Acatlan;;Naucalpan, Estado de México;53150;19.4825652,-99.2497697;15553605757;;;;;;;;;;;;
;145;62;Eukanuba;CERRADA DE MONTE LIBANO 6 LOCAL ;;México, CDMX;11000;19.4186954,-99.2151212;15552028158;;;;;;;;;;;;
;145;62;Eukanuba;AV . UNIVERSIDAD 1601, LOCAL B, FLORIDA;;México, CDMX;1030;19.3511121,-99.178566;15555546758;;;;;;;;;;;;
;145;62;Eukanuba;Calle 9, No. 113 Local 2, Esq Av Patriotismo, Col. San Pedro de los Pinos;;México, CDMX;3800;19.3912648,-99.1822088;15555153610;;;;;;;;;;;;
;145;62;Eukanuba;Monte Libano 915, Local 9A3, Col. Lomas de Barrilaco;;México, CDMX;11010;19.4160452,-99.2256468;15552027501;;;;;;;;;;;;
;145;62;Eukanuba;Bosques de Duraznos 65, local 8 y 9, Col. Bosques de las Lomas ;;México, CDMX;11700;19.4041815,-99.2413073;15555761939;;;;;;;;;;;;
;145;62;Eukanuba;Av. Prolongación Bosques de Reforma No. 1813, Local 228, Lomas de Vista Hermosa;;México, CDMX;5100;19.3827338,-99.2676708;15521675032;;;;;;;;;;;;
;145;62;Eukanuba;Av. Santa Fe 498, Local S1-03  (Estacionamiento de City Market Santa Fe), Col. Cruz Manca ;;México, CDMX;5349;19.3580087,-99.271832;15516646476;;;;;;;;;;;;
;145;62;Eukanuba;Cuernavaca # 124, Condesa;;México, CDMX;6140;19.4113827,-99.1766897;15591556630;;;;;;;;;;;;
;145;62;Eukanuba;Lote 1, Manzana 30, Local A13, Región 4, Calle Balamcanché condominio Playacar, Playa del Carmen ;;Solidaridad, Quintana Roo;77710;20.617475,-87.0937976;19848030632;;;;;;;;;;;;
;145;62;Eukanuba;Carr. Transpeninsular, Cabo San Lucas, Local 12,  Col. El Tezal ;;Cabo San Lucas, Baja California Sur;23454;22.9028725,-109.8995219;16241436081;;;;;;;;;;;;
;145;62;Eukanuba;Boulevard Mauricio Castro 4650 Zona hotelera, Los cabos Baja California Sur;;Los Cabos, Baja California Sur;23400;23.0436616,-109.7043121;16622418973;;;;;;;;;;;;
;145;62;Eukanuba;BLVD. FORJADORES DE SUDCALIFORNIA NÚMERO 4215 E/ CALLE EL TRIUNFO, LOCAL 12, FRACCIONAMIENTO EX BASE AÉREA;;La Paz, Baja California;23080;24.1254104,-110.3140312;16121296080;;;;;;;;;;;;
;145;62;Eukanuba;KM. 435.3 CARRETERA MEXICO-JALAPA S/N, LOCAL B24 PLANTA BAJA, EL LAURERAL;;Veracruz, Veracruz;91697;19.1744302,-96.1887706;12296882442;;;;;;;;;;;;
;145;62;Eukanuba;AV. CORREGIDORA NO. 26, L-51, AEROPUERTO;;Ciudad del Carmen, Campeche;24199;18.6534436,-91.8077056;19386885085;;;;;;;;;;;;
;145;62;Eukanuba;AV BOSQUES DE DURAZNOS # 187, Bosques de las Lomas;;México, CDMX;11700;19.4072164,-99.2396478;15591317032;;;;;;;;;;;;
;145;62;Eukanuba;Av. Acueducto # 976, Chapultepec Norte;;Morelia, Michoacán;58260;19.6977836,-101.174157;14436881394;;;;;;;;;;;;
;145;62;Eukanuba;Eje Norte-Sur S/N Lote 3 Local 20, Col. Civac;;Jiutepec, Morelos;62578;18.9174844,-99.1761701;;;;;;;;;;;;;
;145;62;Eukanuba;Av. Juan Gil Preciado 2001 Bl 20, El Tigre;;Zapopan, Jalisco;45134;20.7498271,-103.4199567;13333640494;;;;;;;;;;;;
;145;62;Eukanuba;Av. Bosques De San Isidrio 780 L Lb-04, La Grana;;Zapopan, Jalisco;45180;20.7469596,-103.3853542;13333659387;;;;;;;;;;;;
;145;62;Eukanuba;Av Naciones Unidas 6895 L. A-5, Col. Puertas Del Tule;;Zapopan, Jalisco;45017;20.6948993,-103.4428198;13316572235;;;;;;;;;;;;
;145;62;Eukanuba;Av. Santa Margarita 5081 Local 3, Rinconadas Del Valle;;Zapopan, Jalisco;45136;20.7302842,-103.4435863;13341639910;;;;;;;;;;;;
;145;62;Eukanuba;Copernico 3998, Paseos Del Sol;;Zapopan, Jalisco;45179;20.6348207,-103.4265983;13336317540;;;;;;;;;;;;
;145;62;Eukanuba;Av. Cuautitlan Izcalli S/N Lote 2 Local S-07, Cuatitla Izcalli;;Cuatitlan Izcalli, Estado de Mexico;54700;19.6486827,-99.207272;15558733622;;;;;;;;;;;;
;145;62;Eukanuba;Av. Hidalgo 300 Local S38, Santa Cruz de Arriba;;Texcoco, Estado de México;56120;19.5156679,-98.8678067;15559251355;;;;;;;;;;;;
;145;62;Eukanuba;Av. Sendero Norte # 1001 Local 26A, Privada La Anahuac;;Nuevo León, Monterrey;66059;25.7710858,-100.2738747;18111048940;;;;;;;;;;;;
;145;62;Eukanuba;Boulevard Miguel Hidalgo No 1101 Local 563cp, Santa Ana;;Tulancingo, Hidalgo;43642;20.0760014,-98.3850348;17751120842;;;;;;;;;;;;
;145;62;Eukanuba;Av Concordia #800 local L-1, Los Ebanos;;Nuevo León, Monterrey;66612;25.7825991,-100.2353384;18115810735;;;;;;;;;;;;
;145;62;Eukanuba;Reyes Espíndola # 18 Local 2, Periodista;;México, CDMX;11220;19.4486894,-99.2180182;15553952256;;;;;;;;;;;;
;145;62;Eukanuba;Calz. Desierto de los Leones 4328, Flor de María;;México CDMX;1760;19.3453269,-99.2099172;15555951420;;;;;;;;;;;;
;145;62;Eukanuba;Av Simbolos Patrios #1319 local 4, Agencia Municipal Candiani;;Oaxaca, Oaxaca;68130;17.0317708,-96.7147239;19515012891;;;;;;;;;;;;
;145;62;Eukanuba;Calzada Norte 7195 local 4, Ciudad Granja;;Zapopan, Jalisco;45010;20.6822839,-103.4460745;13316570153;;;;;;;;;;;;
;145;62;Eukanuba;Privada 31 Oriente 1606 Loc. 1, El Mirador;;Puebla, Puebla;72530;19.0275364,-98.1950327;12222338172;;;;;;;;;;;;
;145;62;Eukanuba;Avenida Valdepeñas No. 8538, Local 8, Fraccionamiento Paseos del Camichín;;Zapopan, Jalisco;45132;20.7555207,-103.4001406;13315615928;;;;;;;;;;;;
;145;62;Eukanuba;Carretera federal México Cuautla  Lote 1  Km 37  Lote 12 S/N, Fracc. Hacienda de Sta. Bárbara;;Ixtapaluca, Estado de México;56538;19.2967067,-98.8852831;15525969610;;;;;;;;;;;;
;145;62;Eukanuba;Camino Real de Colima número 423 y 423-A,  Local 8-A, Los Gavilanes;;Tlajomulco, Jalisco;45645;20.5344098,-103.4742724;;;;;;;;;;;;;
;145;62;Eukanuba;Boulevar 18 Sur núm 5120, Local 18, San Manuel;;Puebla, Puebla;72570;19.0162708,-98.1982905;12226885504;;;;;;;;;;;;
;145;62;Eukanuba;Calle 3, Mz 464, Local 08, Ramon Norte;;Mérida, Yucatán;97000;21.0381115,-89.6023981;;;;;;;;;;;;;
;145;62;Eukanuba;Calzada La Huerta No. 3000,  Local 121, Col. Ex Hacienda la Huerta;;Morelia, Michoacán;58080;19.6794151,-101.2195754;14433345576;;;;;;;;;;;;
;145;62;Eukanuba;Anillo vial Fray Junípero Serra No. 9390, El Refugio;;Querétaro, Querétaro;76146;20.6464979,-100.3446311;14422464131;;;;;;;;;;;;
;145;62;Eukanuba;Libramiento Jose Manuel Zavala No. 165, Local 20, La Luciernaga;;San Miguel de Allende, Guanajuato;37745;20.9027854,-100.7280606;14151204457;;;;;;;;;;;;
;145;62;Eukanuba;Av. Universidad 811, Fraccionamiento Bosques Prado Sur;;Aguascalientes, Aguascalientes;20130;21.9110411,-102.3108951;;;;;;;;;;;;;
;145;62;Eukanuba;Boulevard Cerro Gordo del Campestre No. 401, Lomas de Campestre;;León, Guanajuato;37150;21.1571201,-101.6965717;14777795986;;;;;;;;;;;;
;145;62;Eukanuba;Avenida Periférico Sur 5270, Santa Úrsula;;México, CDMX;4910;19.303467,-99.1724937;;;;;;;;;;;;;
;145;62;Eukanuba;Avenida Paseo Constituyentes No. 1285, El Pueblito;;Corregidora, Querétaro;76900;20.5501293,-100.4234796;14422281981;;;;;;;;;;;;
;145;62;Eukanuba;Carretera Picacho Ajusco No. 175 Col. Héroes de Padierna Tlalpan;;México, CDMX;14200;19.29891,-99.212133;15556317452;;;;;;;;;;;;
;145;62;Eukanuba;Boulevard Eulalio Gutiérrez T. No 2275 Col. San José de los Cerritos;;Saltillo, Coahuila;25293;25.4616779,-100.9508159;18449060262;;;;;;;;;;;;
;145;62;Eukanuba;Av. Fortuna 334, Magdalena de las Salinas;;México, CDMX;7760;19.483907,-99.133087;15521217721;;;;;;;;;;;;
;145;62;Eukanuba;Huichapan #2, Esq. Alvaro Obregón, Col. Hipódromo Condesa;;México, CDMX;6100;19.414761,-99.1761429;15552564670;;;;;;;;;;;;
;145;62;Eukanuba;Av. Universidad No. 1525 Col. Axotla;;México, CDMX;1030;19.3536227,-99.1764945;15556617863;;;;;;;;;;;;
;145;62;Eukanuba;Av. Nereo Rodríguez Barragán No. 1350, Col. Del Parque;;San Luis Potosí, San Luis Potosí;78220;22.152343,-101.0123838;14448110379;;;;;;;;;;;;
;145;62;Eukanuba;Boulevard Pedro Infante 450 pte. Col. Recursos Hidráulicos;;Sinaloa, Sinaloa;80100;24.8009188,-107.4128155;16677140251;;;;;;;;;;;;
;145;62;Eukanuba;Autopista México-Acapulco km 87.5 Col. Tulipanes;;Cuernavaca, Morelos;62370;18.9355614,-99.1925415;;;;;;;;;;;;;
;145;62;Eukanuba;Av. De las Fuentes #190 Col. Lomas de Tecamachalco;;Estado de México, Estado de México;53950;19.4214909,-99.2381442;;;;;;;;;;;;;
;145;62;Eukanuba;Periferico de la Juventud #6501 Col. Hacienda del Valle;;Chihuahua, Chihuahua;31238;28.6326337,-106.1240378;;;;;;;;;;;;;
;145;62;Eukanuba;Boulevard Cultura #55 Oriente Col. Proyecto Rio Sonora;;Hermosillo, Sonora;83280;29.0651821,-110.9509019;16626885608;;;;;;;;;;;;
;145;62;Eukanuba;MANUEL L BARRAGAN 325, RESIDENCIAL ANAHUAC ;;San Nicolás de los Garza, Nuevo León;66457;25.743327,-100.312866;(81)83320352;;;;;;;;;;;;
;145;62;Eukanuba;AV. ROMULO GARZA 410, DEL LAGO ;;San Nicolás de los Garza, Nuevo León;66477;25.72605,-100.21441;(81)82409007;;;;;;;;;;;;
;145;62;Eukanuba;Hacienda Peñuelas 6771, Residencial Cumbres Las Palmas;;Monterrey, Nuevo León;67771;25.73289,-100.397267;(81)10951548;;;;;;;;;;;;
;145;62;Eukanuba;BATALLON DE SAN PATRICIO 1000, RESIDENCIAL SAN AGUSTIN;;San Pedro, Nuevo León;66278;25.649987,-100.337164;(81)83638657;;;;;;;;;;;;
;145;62;Eukanuba;LAZARO CARDENAS 1000, VALLE DEL MIRADOR;;San Pedro, Nuevo León;64750;25.638574,-100.314109;(81)84860246;;;;;;;;;;;;
;145;62;Eukanuba;AV VASCONCELOS 402, DEL VALLE ;;San Pedro, Nuevo León;66220;25.652251,-100.359593;83352741;;;;;;;;;;;;
;145;62;Eukanuba;AV. LINCON 4001, PUERTA DE HIERRO ;;Monterrey, Nuevo León;64346;25.764037,-100.40907;(81)96882468;;;;;;;;;;;;
id_store;id_country;id_state;name;address1;address2;city;postcode;coordinates;phone;fax;email;note;active;hours_1;hours_2;hours_3;hours_4;hours_5;hours_6;hours_7;id_store
